Title,Address,Latitude,Longitude,Found Address,Match Quality,Source
ANNE ARUNDEL COUNTY PUBLIC LIBRARY,"5 Harry S. Truman Pkwy, Annapolis, MD 21401, USA",38.9807872,-76.5685635,"5 Harry S. Truman Pkwy, Annapolis, MD 21401, USA",Match,Google
SUNY Broome,"907 Front Street, Binghamton, NY",42.163338,-75.89201,"907 FRONT ST, BINGHAMTON, NY, 13901",Match,US Census
Adirondack Park,"Northville, NY 12134",43.2256274,-74.1720768,"Northville, NY 12134, USA",Match,Google
Half Moon Bay,"half moon bay, San Mateo County, California",37.4635519,-122.4285862,"Half Moon Bay, CA, USA",Match,Google
Boston University,"72 East Concord St, boston Massachussetts",42.3364013,-71.072408,"72 E Concord St, Boston, MA 02118, USA",Partial Match,Google
Syracuse University Maxwell School,"200 Eggers Hall, Syracuse, NY 13244",43.0379769,-76.1355729,"200 Eggers Hall, Syracuse, NY 13244, USA",Match,Google
Houston Montrose District ,"Montrose Street, Houston, TX",29.7427249,-95.3991907,"Montrose, Houston, TX, USA",Match,Google
Sequoia National Park,"64740 Wuksachi Way, Sequoia National Park, CA",36.607864,-118.7524,"64740 WUKSACHI WAY, SEQUOIA NATIONAL PARK, CA, 93262",Match,US Census
Organ Pipe National Monument,"10 Organ Pipe Dr, Ajo, AZ 85321",31.956636,-112.81118,"10 ORGAN PIPE DR, AJO, AZ, 85321",Exact,US Census
Grand Canyon,"grand canyon,arizona, us",36.1069652,-112.1129972,"Grand Canyon National Park, Arizona, USA",Match,Google
Manzano Mountains State ParK,"Co Rd B062, Mountainair, NM 87036",34.6190818,-106.3542127,"Co Rd B062, Mountainair, NM 87036, USA",Partial Match,Google
Big Bend National Park,"Big Bend National Park, TX",29.1274869,-103.2425379,"Big Bend National Park, TX, USA",Match,Google
ANNE ARUNDEL COUNTY PUBLIC LIBRARY,"5 Harry S. Truman Pkwy, Annapolis, MD 21401, USA",38.9807872,-76.5685635,"5 Harry S. Truman Pkwy, Annapolis, MD 21401, USA",Match,Google
METROPOLITAN COLLEGE OF NEW YORK,"60 West St, New York, NY 10006, USA",40.7087232,-74.0149514,"60 West St, New York, NY 10006, USA",Match,Google
AUBURN UNIVERSITY,"Auburn, AL 36849, USA",32.5933574,-85.4951663,"Auburn, AL 36849, USA",Match,Google
UNIVERSITY OF SOUTH ALABAMA BIOMEDICAL LIBRARY,"5791 USA Dr N, Mobile, AL 36688, USA",30.6988469,-88.1758233,"5791 USA Dr N, Mobile, AL 36688, USA",Match,Google
ATLANTIC COUNTY LIBRARY,"40 Farragut Ave, Mays Landing, NJ 08330, USA",39.4509842,-74.7254059,"40 Farragut Ave, Mays Landing, NJ 08330, USA",Match,Google
NAVAL POSTGRADUATE SCHOOL,"1 University Circle, Monterey, CA 93943, USA",36.5971462,-121.8740536,"1 University Circle, Monterey, CA 93943, USA",Match,Google
U.S. ARMY PICATINNY,"213 NJ-15, Wharton, NJ 07885, USA",40.9170764,-74.5805051,"213 NJ-15, Wharton, NJ 07885, USA",Match,Google
CENTER FOR ARMY ANALYSIS,"Bldg 50, 10 Meade Ave, Fort Leavenworth, KS 66027, United States",39.3508154,-94.9141046,"Bldg 50, 10 Meade Ave, Fort Leavenworth, KS 66027, United States",Match,Google
UNIVERSITY OF ARKANSAS - FAYETTEVILLE,"Fayetteville, AR 72701, USA",36.0678324,-94.1736551,"Fayetteville, AR 72701, USA",Match,Google
USDA FOREST SVS. ROCKY MOUNTAIN STATION,"Unnamed Road, Bozeman, MT 59715, United States",45.6623705,-111.0456875,"Unnamed Road, Bozeman, MT 59715, United States",Partial Match,Google
UNIV OF ARK FOR MEDICAL SCI AREA HEALTH EDUC CTR,"4301 W Markham St, Little Rock, AR 72205, USA",34.7503633,-92.3226895,"4301 W Markham St, Little Rock, AR 72205, USA",Match,Google
WILLIAM BEAUMONT ARMY MEDICAL CENTER,"5005 N Piedras St, El Paso, TX 79920, USA",31.8215059,-106.4630052,"5005 N Piedras St, El Paso, TX 79920, USA",Match,Google
UNIVERSITY OF CENTRAL ARKANSAS,"201 Donaghey Ave, Conway, AR 72035, USA",35.0780913,-92.4579383,"201 Donaghey Ave, Conway, AR 72035, USA",Match,Google
UNIVERSITY OF ARKANSAS/LITTLE ROCK,"2801 S University Ave, Little Rock, AR 72204, USA",34.7240568,-92.3388872,"2801 S University Ave, Little Rock, AR 72204, USA",Match,Google
MONTGOMERY CITY COUNTY PUBLIC LIBRARY,"245 High St, Montgomery, AL 36102, USA",32.3725223,-86.3054481,"245 High St, Montgomery, AL 36102, USA",Match,Google
UNIVERSITY OF MONTEVALLO,"75 College Dr, Montevallo, AL 35115, USA",33.1067187,-86.8654168,"75 College Dr, Montevallo, AL 35115, USA",Match,Google
ANGELO STATE UNIVERSITY,"2601 W Ave N, San Angelo, TX 76909, USA",31.4382686,-100.4602762,"2601 W Ave N, San Angelo, TX 76909, USA",Match,Google
UNIVERSITY OF NORTH ALABAMA,"1 Harrison Plaza, Florence, AL 35632, USA",34.8074555,-87.6811676,"1 Harrison Plaza, Florence, AL 35632, USA",Match,Google
ANTIOCH NEW ENGLAND GRAD SCHOOL,"40 Avon St, Keene, NH 03431, USA",42.9317822,-72.2938339,"40 Avon St, Keene, NH 03431, USA",Match,Google
NEW JERSEY ATTORNEY GENERALS OFFICE,"124 Halsey St, Newark, NJ 07102, USA",40.7382789,-74.1723248,"124 Halsey St, Newark, NJ 07102, USA",Match,Google
UNIVERSITY OF MASSACHUSETTS AMHERST,"Amherst, MA 01003, USA",42.3911569,-72.5267121,"Amherst, MA 01003, USA",Match,Google
ATLANTA UNIVERSITY CENTER,"156 Mildred St SW, Atlanta, GA 30314, USA",33.7505746,-84.4118579,"156 Mildred St SW, Atlanta, GA 30314, USA",Match,Google
ALVERNIA COLLEGE,"400 St Bernardine St, Reading, PA 19607, USA",40.3112017,-75.931668,"400 St Bernardine St, Reading, PA 19607, USA",Match,Google
FAIRFAX COUNTY PUBLIC LIBRARY,"Alexandria, VA 22315, USA",38.7399701,-77.1645675,"Alexandria, VA 22315, USA",Match,Google
LOUDOUN COUNTY PUBLIC LIBRARY,"21030 Whitfield Pl, Potomac Falls, VA 20165, USA",39.033235,-77.394779,"21030 Whitfield Pl, Potomac Falls, VA 20165, USA",Match,Google
GRAND CANYON UNIVERSITY,"3300 W Camelback Rd, Phoenix, AZ 85017, USA",33.5105204,-112.1299582,"3300 W Camelback Rd, Phoenix, AZ 85017, USA",Match,Google
NORTHERN ARIZONA UNIVERSITY,"S San Francisco St, Flagstaff, AZ 86011, USA",35.1851895,-111.6547075,"S San Francisco St, Flagstaff, AZ 86011, USA",Match,Google
TUCSON-PIMA PUBLIC LIBRARY,"5605 E River Rd, Tucson, AZ 85750, USA",32.2752407,-110.8733079,"5605 E River Rd, Tucson, AZ 85750, USA",Match,Google
BALTIMORE COUNTY PUBLIC LIBRARY,"9833 Greenside Dr, Cockeysville, MD 21030, USA",39.4602846,-76.629213,"9833 Greenside Dr, Cockeysville, MD 21030, USA",Match,Google
BABSON COLLEGE,"231 Forest St, Babson Park, MA 02457, USA",42.2964421,-71.2657077,"231 Forest St, Babson Park, MA 02457, USA",Match,Google
UNIVERSITY OF BALTIMORE,"1420 N Charles St, Baltimore, MD 21201, USA",39.3061598,-76.6162325,"1420 N Charles St, Baltimore, MD 21201, USA",Match,Google
BOWDOIN COLLEGE,"255 Maine St, Brunswick, ME 04011, USA",43.9076929,-69.9639971,"255 Maine St, Brunswick, ME 04011, USA",Match,Google
BROOKDALE COMMUNITY COLLEGE LIBRARY,"Lot #5, Academic Dr, Lincroft, NJ 07738, United States",40.3261038,-74.1333551,"Lot #5, Academic Dr, Lincroft, NJ 07738, United States",Match,Google
BRYANT & STRATTON COLLEGE SYRACUSE NORTH,"953 James St, Syracuse, NY 13203, USA",43.0590789,-76.137053,"953 James St, Syracuse, NY 13203, USA",Match,Google
BRIDGEWATER STATE COLLEGE,"131 Summer St, Bridgewater, MA 02324, USA",41.987662,-70.9665499,"131 Summer St, Bridgewater, MA 02324, USA",Match,Google
ARCADIA UNIVERSITY,"450 S Easton Rd, Glenside, PA 19038, USA",40.0914406,-75.1648845,"450 S Easton Rd, Glenside, PA 19038, USA",Match,Google
FORT BELVOIR LIBRARY,"9800 Belvoir Rd, Fort Belvoir, VA 22060, USA",38.6922501,-77.1377185,"9800 Belvoir Rd, Fort Belvoir, VA 22060, USA",Match,Google
BERGEN COMMUNITY COLLEGE,"400 Paramus Rd, Paramus, NJ 07652, USA",40.9507497,-74.0881431,"400 Paramus Rd, Paramus, NJ 07652, USA",Match,Google
BENTLEY COLLEGE,"175 Forest St, Waltham, MA 02452, USA",42.3867756,-71.2203176,"175 Forest St, Waltham, MA 02452, USA",Match,Google
BOWLING GREEN STATE UNIVERSITY MAIN CAMPUS LIBRARY,"1001 E Wooster St, Bowling Green, OH 43403, USA",41.376503,-83.635107,"1001 E Wooster St, Bowling Green, OH 43403, USA",Match,Google
BROOKLYN PUBLIC LIBRARY,"306 Jackson St, Brooklyn, IA 52211, USA",41.7312406,-92.4460298,"306 Jackson St, Brooklyn, IA 52211, USA",Match,Google
BELLINGHAM PUBLIC LIBRARY,"210 Central Ave, Bellingham, WA 98225, USA",48.754148,-122.478837,"210 Central Ave, Bellingham, WA 98225, USA",Match,Google
UNIVERSITY OF MASSACHUSETTS/BOSTON,"100 William T Morrissey Blvd, Boston, MA 02125, USA",42.3148413,-71.0367377,"100 William T Morrissey Blvd, Boston, MA 02125, USA",Match,Google
SUNY AT BINGHAMTON,"4400 Vestal Pkwy E, Binghamton, NY 13902, USA",42.0893553,-75.9697049,"4400 Vestal Pkwy E, Binghamton, NY 13902, USA",Match,Google
BENNINGTON COLLEGE,"1 College Dr, Bennington, VT 05201, USA",42.9203078,-73.2359361,"1 College Dr, Bennington, VT 05201, USA",Match,Google
BOSE CORPORATE LIBRARY,"1900 15th St, Kenosha, WI 53140, USA",42.6323838,-87.8323338,"1900 15th St, Kenosha, WI 53140, USA",Match,Google
BECKER COLLEGE,"61 Sever St, Worcester, MA 01609, USA",42.2670243,-71.811918,"61 Sever St, Worcester, MA 01609, USA",Match,Google
BRYANT COLLEGE,"1150 Douglas Pike, Smithfield, RI 02917, USA",41.9211048,-71.5379512,"1150 Douglas Pike, Smithfield, RI 02917, USA",Match,Google
BIRCHARD PUBLIC LIBRARY,"423 Croghan St, Fremont, OH 43420, USA",41.3459395,-83.1156302,"423 Croghan St, Fremont, OH 43420, USA",Match,Google
BROOKFIELD LIBRARY,"1900 N Calhoun Rd, Brookfield, WI 53005, USA",43.055209,-88.125436,"1900 N Calhoun Rd, Brookfield, WI 53005, USA",Match,Google
BOSTON PUBLIC LIBRARY,"700 Boylston St, Boston, MA 02116, USA",42.3494524,-71.0788382,"700 Boylston St, Boston, MA 02116, USA",Match,Google
BATES COLLEGE,"2 Andrews Rd, Lewiston, ME 04240, USA",44.1057216,-70.2021865,"2 Andrews Rd, Lewiston, ME 04240, USA",Match,Google
SUNY AT BUFFALO,"Buffalo, NY 14260, USA",43.0008093,-78.7889697,"Buffalo, NY 14260, USA",Match,Google
BURLINGTON COUNTY LIBRARY,"5 Pioneer Blvd, Westampton, NJ 08060, USA",40.014711,-74.819752,"5 Pioneer Blvd, Westampton, NJ 08060, USA",Match,Google
VETERANS ADMIN MED CTR BRONX,"130 W Kingsbridge Rd, Bronx, NY 10468, USA",40.8674951,-73.9051496,"130 W Kingsbridge Rd, Bronx, NY 10468, USA",Match,Google
BANGOR PUBLIC LIBRARY,"145 Harlow St, Bangor, ME 04401, USA",44.8044011,-68.7715025,"145 Harlow St, Bangor, ME 04401, USA",Match,Google
BRIGHAM YOUNG UNIVERSITY - HAWAII,"55-220 Kulanui St, Laie, HI 96762, USA",21.6421732,-157.9253122,"55-220 Kulanui St, Laie, HI 96762, USA",Match,Google
CALIFORNIA STATE LIBRARY,"900 N St, Sacramento, CA 95814, USA",38.575783,-121.496334,"900 N St, Sacramento, CA 95814, USA",Match,Google
COLBY COLLEGE,"4000 Mayflower Hill Dr, Waterville, ME 04901, USA",44.5638691,-69.6626362,"4000 Mayflower Hill Dr, Waterville, ME 04901, USA",Match,Google
CONCORDIA UNIVERSITY,"2811 NE Holman St, Portland, OR 97211, USA",45.5701912,-122.6368874,"2811 NE Holman St, Portland, OR 97211, USA",Match,Google
CHAPMAN UNIVERSITY,"1 University Dr, Orange, CA 92866, USA",33.7933476,-117.8513503,"1 University Dr, Orange, CA 92866, USA",Match,Google
FORT LEWIS COLLEGE,"Kroeger Hall, 1000 Rim Dr, Durango, CO 81301, USA",37.2737453,-107.8710381,"Kroeger Hall, 1000 Rim Dr, Durango, CO 81301, USA",Match,Google
SAN DIEGO STATE UNIVERSITY LIBRARY,"5500 Campanile Dr, San Diego, CA 92182, USA",32.7752172,-117.0703865,"5500 Campanile Dr, San Diego, CA 92182, USA",Match,Google
CENTRAL OREGON COMMUNITY COLLEGE,"2600 NW College Way, Bend, OR 97703, USA",44.0713603,-121.3485532,"2600 NW College Way, Bend, OR 97703, USA",Match,Google
CALIFORNIA STATE UNIVERSITY/FULLERTON,"800 N State College Blvd, Fullerton, CA 92831, USA",33.8829226,-117.8869261,"800 N State College Blvd, Fullerton, CA 92831, USA",Match,Google
CALIFORNIA STATE UNIVERSITY/FRESNO,"5241 N Maple Ave, Fresno, CA 93740, USA",36.8124451,-119.7457805,"5241 N Maple Ave, Fresno, CA 93740, USA",Match,Google
CHICAGO PUBLIC LIBRARY,"400 S State St, Chicago, IL 60605, USA",41.8762968,-87.6282279,"400 S State St, Chicago, IL 60605, USA",Match,Google
HUMBOLDT STATE UNIVERSITY,"1 Harpst St, Arcata, CA 95521, USA",40.8752748,-124.077821,"1 Harpst St, Arcata, CA 95521, USA",Match,Google
UNIVERSITY OF CINCINNATI,"2600 Clifton Ave, Cincinnati, OH 45220, USA",39.1329219,-84.5149504,"2600 Clifton Ave, Cincinnati, OH 45220, USA",Match,Google
CLARK UNIVERSITY,"950 Main St, Worcester, MA 01610, USA",42.2523452,-71.8246703,"950 Main St, Worcester, MA 01610, USA",Match,Google
CALIFORNIA STATE UNIVERSITY/LONG BEACH,"1250 Bellflower Blvd, Long Beach, CA 90840, United States",33.7838235,-118.1140904,"1250 Bellflower Blvd, Long Beach, CA 90840, United States",Match,Google
UNIVERSITY OF CALIFORNIA LOS ANGELES,"Los Angeles, CA 90095, USA",34.068921,-118.4451811,"Los Angeles, CA 90095, USA",Match,Google
UNIVERSITY OF LA VERNE,"1950 3rd St, La Verne, CA 91750, USA",34.100854,-117.773235,"1950 3rd St, La Verne, CA 91750, USA",Match,Google
MID-CONTINENT PUBLIC LIBRARY,"15616 E US Hwy 24, Independence, MO 64050, USA",39.1115776,-94.3916385,"15616 E US Hwy 24, Independence, MO 64050, USA",Match,Google
COUNTY COLLEGE OF MORRIS,"214 Center Grove Rd, Randolph, NJ 07869, USA",40.8588973,-74.5797228,"214 Center Grove Rd, Randolph, NJ 07869, USA",Match,Google
CAPE MAY COUNTY LIBRARY,"30 Mechanic St, Cape May Court House, NJ 08210, USA",39.0831871,-74.8251458,"30 Mechanic St, Cape May Court House, NJ 08210, USA",Match,Google
NATIONAL UNIVERSITY LIBRARY,"9393 Lightwave Ave, San Diego, CA 92123, USA",32.8279796,-117.1272397,"9393 Lightwave Ave, San Diego, CA 92123, USA",Match,Google
BOULDER PUBLIC LIBRARY,"1001 Arapahoe Ave, Boulder, CO 80302, USA",40.013952,-105.281769,"1001 Arapahoe Ave, Boulder, CO 80302, USA",Match,Google
COLORADO STATE UNIVERSITY,"Fort Collins, CO 80523, USA",40.573436,-105.0865473,"Fort Collins, CO 80523, USA",Match,Google
MESA STATE COLLEGE,"1100 North Ave, Grand Junction, CO 81501, USA",39.0808594,-108.5543371,"1100 North Ave, Grand Junction, CO 81501, USA",Match,Google
CORNELL UNIVERSITY,"Ithaca, NY 14850, USA",42.4534492,-76.4735027,"Ithaca, NY 14850, USA",Match,Google
COLORADO SCHOOL OF MINES,"1500 Illinois St, Golden, CO 80401, USA",39.7510136,-105.2225705,"1500 Illinois St, Golden, CO 80401, USA",Match,Google
REGIS UNIVERSITY,"3333 Regis Blvd, Denver, CO 80221, USA",39.7893353,-105.0298601,"3333 Regis Blvd, Denver, CO 80221, USA",Match,Google
UNIVERSITY OF SOUTHERN COLORADO,"2200 Bonforte Blvd, Pueblo, CO 81001, USA",38.30854,-104.5760394,"2200 Bonforte Blvd, Pueblo, CO 81001, USA",Match,Google
UNIVERSITY OF NORTHERN COLORADO,"501 20th St, Greeley, CO 80639, USA",40.4055236,-104.6961077,"501 20th St, Greeley, CO 80639, USA",Match,Google
UNIVERSITY OF COLORADO AT COLORADO SPRINGS,"1420 Austin Bluffs Pkwy, Colorado Springs, CO 80918, USA",38.8964679,-104.8050594,"1420 Austin Bluffs Pkwy, Colorado Springs, CO 80918, USA",Match,Google
HOPE INTERNATIONAL UNIVERSITY,"2500 Nutwood Ave, Fullerton, CA 92831, USA",33.8768351,-117.8854274,"2500 Nutwood Ave, Fullerton, CA 92831, USA",Match,Google
CARNEGIE LIBRARY OF PITTSBURGH,"1230 Federal St, Pittsburgh, PA 15212, USA",40.4563575,-80.0065961,"1230 Federal St, Pittsburgh, PA 15212, USA",Match,Google
CALIFORNIA POLYTECHNIC STATE UNIVERSITY,"San Luis Obispo, CA 93407, USA",35.3050053,-120.6624942,"San Luis Obispo, CA 93407, USA",Match,Google
CAPE COD COMMUNITY COLLEGE,"2240 Iyannough Rd, West Barnstable, MA 02668, USA",41.6911001,-70.3373416,"2240 Iyannough Rd, West Barnstable, MA 02668, USA",Match,Google
PIKES PEAK LIBRARY DISTRICT,"1175 Chapel Hills Dr, Colorado Springs, CO 80920, USA",38.953371,-104.793064,"1175 Chapel Hills Dr, Colorado Springs, CO 80920, USA",Match,Google
CALIFORNIA STATE UNIVERSITY/SAN MARCOS,"333 S Twin Oaks Valley Rd, San Marcos, CA 92096, USA",33.1291944,-117.1591368,"333 S Twin Oaks Valley Rd, San Marcos, CA 92096, USA",Match,Google
CA STATE UNIVERSITY SACRAMENTO,"6000 J Street, Sacramento, CA 95819, USA",38.5612918,-121.4240519,"6000 J Street, Sacramento, CA 95819, USA",Match,Google
SAN FRANCISCO STATE UNIVERSITY LIBRARY,"1630 Holloway Ave, San Francisco, CA 94132, USA",37.7213383,-122.4781604,"1630 Holloway Ave, San Francisco, CA 94132, USA",Match,Google
SAN JOSE STATE UNIVERSITY,"1 Washington Sq, San Jose, CA 95192, USA",37.3351874,-121.8810715,"1 Washington Sq, San Jose, CA 95192, USA",Match,Google
CLEVELAND STATE UNIVERSITY,"2121 Euclid Ave, Cleveland, OH 44115, USA",41.5024973,-81.6747185,"2121 Euclid Ave, Cleveland, OH 44115, USA",Match,Google
CENTRAL CONNECTICUT STATE UNIVERSITY,"1615 Stanley St, New Britain, CT 06053, USA",41.693255,-72.764167,"1615 Stanley St, New Britain, CT 06053, USA",Match,Google
CONNECTICUT COLLEGE,"270 Mohegan Avenue, New London, CT 06320, USA",41.3786877,-72.1045869,"270 Mohegan Avenue, New London, CT 06320, USA",Match,Google
CUNY - LA GUARDIA COMMUNITY COLLEGE,"31-10 Thomson Ave, Long Island City, NY 11101, USA",40.7443347,-73.935085,"31-10 Thomson Ave, Long Island City, NY 11101, USA",Partial Match,Google
CITY UNIVERSITY,"521 Wall St Suite 100, Seattle, WA 98121, USA",47.6174502,-122.3444679,"521 Wall St Suite 100, Seattle, WA 98121, USA",Match,Google
UNIVERSITY OF CALIFORNIA IRVINE,"Irvine, CA 92697, USA",33.6404952,-117.8442962,"Irvine, CA 92697, USA",Match,Google
CURRY COLLEGE,"1071 Blue Hill Avenue, Milton, MA 02186, USA",42.2353087,-71.1111665,"1071 Blue Hill Avenue, Milton, MA 02186, USA",Match,Google
UNIVERSITY OF CALIFORNIA SANTA BARBARA,"Santa Barbara, CA 93106, USA",34.4139629,-119.848947,"Santa Barbara, CA 93106, USA",Match,Google
UNIVERSITY OF CALIFORNIA SANTA CRUZ,"1156 High St, Santa Cruz, CA 95064, USA",36.9915847,-122.0582771,"1156 High St, Santa Cruz, CA 95064, USA",Match,Google
CENT WASHINGTON UNIVERSITY,"1 Brookings Dr, St. Louis, MO 63130, USA",38.6487895,-90.3107962,"1 Brookings Dr, St. Louis, MO 63130, USA",Partial Match,Google
THE BROOKINGS INSTITUTION,"1775 Massachusetts Ave NW, Washington, DC 20036, USA",38.9090159,-77.0405558,"1775 Massachusetts Ave NW, Washington, DC 20036, USA",Match,Google
DAKOTA COUNTY LIBRARY SYSTEM,"1340 Wescott Rd, Eagan, MN 55123, USA",44.81778,-93.163456,"1340 Wescott Rd, Eagan, MN 55123, USA",Match,Google
NEW CASTLE COUNTY DEPT OF LIBRARIES,"6000 Kirkwood Hwy, Wilmington, DE 19808, USA",39.7108666,-75.6787749,"6000 Kirkwood Hwy, Wilmington, DE 19808, USA",Match,Google
GEORGE WASHINGTON UNIVERSITY,"2121 I St NW, Washington, DC 20052, USA",38.8997145,-77.0485992,"2121 I St NW, Washington, DC 20052, USA",Match,Google
DICKINSON COLLEGE,"28 N College St, Carlisle, PA 17013, USA",40.2027214,-77.197232,"28 N College St, Carlisle, PA 17013, USA",Match,Google
DAYTON & MONTGOMERY COUNTY PUBLIC LIBRARY,"215 E 3rd St, Dayton, OH 45402, USA",39.7605486,-84.1878269,"215 E 3rd St, Dayton, OH 45402, USA",Partial Match,Google
DOVER PUBLIC LIBRARY,"35 E Loockerman St, Dover, DE 19901, USA",39.1589021,-75.5226961,"35 E Loockerman St, Dover, DE 19901, USA",Match,Google
BUCKS COUNTY FREE LIBRARY,"150 S Pine St, Doylestown, PA 18901, USA",40.307998,-75.125814,"150 S Pine St, Doylestown, PA 18901, USA",Match,Google
DENVER PUBLIC LIBRARY,"10 W 14th Ave Pkwy, Denver, CO 80204, USA",39.737371,-104.988115,"10 W 14th Ave Pkwy, Denver, CO 80204, USA",Match,Google
DOMINICAN UNIVERSITY OF CALIFORNIA,"50 Acacia Ave, San Rafael, CA 94901, USA",37.9795666,-122.513156,"50 Acacia Ave, San Rafael, CA 94901, USA",Match,Google
DUQUESNE UNIVERSITY,"600 Forbes Ave, Pittsburgh, PA 15282, USA",40.4374516,-79.9905863,"600 Forbes Ave, Pittsburgh, PA 15282, USA",Match,Google
CARROLL AND MADISON LIBRARY SYSTEM,"106 Spring St, Berryville, AR 72616, USA",36.3640383,-93.5686317,"106 Spring St, Berryville, AR 72616, USA",Match,Google
NYS DEPT OF ENVIRONMENTAL CONSERVATION,"625 Broadway, Albany, NY 12233, USA",42.652359,-73.74861,"625 Broadway, Albany, NY 12233, USA",Match,Google
AMERICAN UNIVERSITY,"4400 Massachusetts Ave NW, Washington, DC 20016, USA",38.9374948,-77.0888029,"4400 Massachusetts Ave NW, Washington, DC 20016, USA",Match,Google
SPARROW HEALTH SCIENCES LIBRARY,"1215 E Michigan Ave, Lansing, MI 48912, USA",42.7339085,-84.5349616,"1215 E Michigan Ave, Lansing, MI 48912, USA",Match,Google
EDUCATIONAL TESTING SERVICE,"660 Rosedale Rd, Princeton, NJ 08540, USA",40.3445203,-74.7162036,"660 Rosedale Rd, Princeton, NJ 08540, USA",Match,Google
PALM BEACH COMMUNITY COLLEGE,"3160 PGA Boulevard, Palm Beach Gardens, FL 33410, USA",26.8430204,-80.0793406,"3160 PGA Boulevard, Palm Beach Gardens, FL 33410, USA",Match,Google
FARMINGTON COMMUNITY LIBRARY,"32737 W. Twelve Mile Road, Farmington Hills, MI 48334, USA",42.4979705,-83.3709079,"32737 W. Twelve Mile Road, Farmington Hills, MI 48334, USA",Match,Google
ENVIRONMENTAL PROTECTION REGIONAL II LIBRARY,"290 Broadway, 
New York, New York 10007",40.7147314,-74.005178,"290 Broadway, 
New York, New York 10007",Match,Google
EDINBORO UNIVERSITY OF PENNSYLVANIA,"219 Meadville St, Edinboro, PA 16444, USA",41.871572,-80.1208028,"219 Meadville St, Edinboro, PA 16444, USA",Match,Google
ELIZABETHTOWN COLLEGE,"1 Alpha Dr, Elizabethtown, PA 17022, USA",40.1503251,-76.589792,"1 Alpha Dr, Elizabethtown, PA 17022, USA",Match,Google
MONTANA STATE UNIVERSITY BILLINGS,"1500 University Dr, Billings, MT 59101, USA",45.7968435,-108.5220124,"1500 University Dr, Billings, MT 59101, USA",Match,Google
EMMANUEL COLLEGE,"400 Fenway, Boston, MA 02115, USA",42.3410214,-71.1022899,"400 Fenway, Boston, MA 02115, USA",Match,Google
EASTERN NAZARENE COLLEGE,"23 E Elm Ave, Quincy, MA 02170, USA",42.2715247,-71.0108768,"23 E Elm Ave, Quincy, MA 02170, USA",Match,Google
BAKER COLLEGE,"1050 W Bristol Rd, Flint, MI 48507, USA",42.9754572,-83.6961214,"1050 W Bristol Rd, Flint, MI 48507, USA",Match,Google
MUHLENBERG COLLEGE,"2400 W Chew St, Allentown, PA 18104, USA",40.597544,-75.5101316,"2400 W Chew St, Allentown, PA 18104, USA",Match,Google
GRAND VALLEY STATE UNIVERSITY,"1 Campus Dr, Allendale, MI 49401, USA",42.9639298,-85.8889489,"1 Campus Dr, Allendale, MI 49401, USA",Match,Google
WESTERN MICHIGAN UNIVERSITY,"1903 Western Michigan Avenue, Kalamazoo, MI 49008, USA",42.2837336,-85.6102507,"1903 Western Michigan Avenue, Kalamazoo, MI 49008, USA",Match,Google
EASTERN MICHIGAN UNIVERSITY,"900 Oakwood St, Ypsilanti, MI 48197, USA",42.2506803,-83.624089,"900 Oakwood St, Ypsilanti, MI 48197, USA",Match,Google
OAKLAND UNIVERSITY,"318 Meadow Brook Rd, Rochester, MI 48309, USA",42.6679163,-83.208182,"318 Meadow Brook Rd, Rochester, MI 48309, USA",Match,Google
WAYNE STATE UNIVERSITY,"42 W Warren Ave, Detroit, MI 48202, USA",42.3591388,-83.0665462,"42 W Warren Ave, Detroit, MI 48202, USA",Match,Google
CENTRAL MICHIGAN UNIVERSITY,"1200 S Franklin St, Mt Pleasant, MI 48859, USA",43.5819086,-84.7756364,"1200 S Franklin St, Mt Pleasant, MI 48859, USA",Match,Google
FERRIS STATE UNIVERSITY,"1201 S State St, Big Rapids, MI 49307, USA",43.6834099,-85.4841782,"1201 S State St, Big Rapids, MI 49307, USA",Match,Google
NORTHERN MICHIGAN UNIVERSITY,"1401 Presque Isle Ave, Marquette, MI 49855, USA",46.5596032,-87.4044868,"1401 Presque Isle Ave, Marquette, MI 49855, USA",Match,Google
SAGINAW VALLEY STATE UNIVERSITY,"7400 Bay Rd, University Center, MI 48710, USA",43.5142733,-83.9623559,"7400 Bay Rd, University Center, MI 48710, USA",Match,Google
ARGOSY UNIVERSITY TAMPA LIBRARY,"1403 N Howard Ave, Tampa, FL 33607, USA",27.9551836,-82.482559,"1403 N Howard Ave, Tampa, FL 33607, USA",Match,Google
BROWARD COUNTY PUBLIC LIBRARY,"751 SW 121st Ave, Davie, FL 33325, USA",26.1126945,-80.3111728,"751 SW 121st Ave, Davie, FL 33325, USA",Match,Google
COLORADO CHRISTIAN UNIVERSITY,"8787 W Alameda Ave, Lakewood, CO 80226, USA",39.7125682,-105.0945084,"8787 W Alameda Ave, Lakewood, CO 80226, USA",Match,Google
FAIRLEIGH DICKINSON UNIVERSITY METROPOLITAN CAMPUS,"1000 River Rd, Teaneck, NJ 07666, USA",40.8975036,-74.029816,"1000 River Rd, Teaneck, NJ 07666, USA",Match,Google
FERGUSON LIBRARY,"1 Public Library Plaza, Stamford, CT 06901, USA",41.0556329,-73.5391668,"1 Public Library Plaza, Stamford, CT 06901, USA",Match,Google
FLORIDA GULF COAST UNIVERSITY,"10501 FGCU Blvd S, Fort Myers, FL 33965, USA",26.4643209,-81.7733903,"10501 FGCU Blvd S, Fort Myers, FL 33965, USA",Match,Google
NEW COLLEGE OF FLORIDA,"5800 Bay Shore Rd, Sarasota, FL 34243, USA",27.384828,-82.558703,"5800 Bay Shore Rd, Sarasota, FL 34243, USA",Match,Google
FLORIDA INSTITUTE OF TECHNOLOGY,"3012 Engineering St, Melbourne, FL 32901, USA",28.0632566,-80.6238884,"3012 Engineering St, Melbourne, FL 32901, USA",Match,Google
NOVA SOUTHEASTERN UNIVERSITY LAW LIBRARY,"3100 Ray Ferrero, Jr. Blvd., Fort Lauderdale, FL 33314, USA",26.079452,-80.2425234,"3100 Ray Ferrero, Jr. Blvd., Fort Lauderdale, FL 33314, USA",Match,Google
NOVA SOUTHEASTERN UNIV,"3301 College Avenue, Fort Lauderdale, FL 33314, USA",26.0789364,-80.2462675,"3301 College Avenue, Fort Lauderdale, FL 33314, USA",Match,Google
UNIVERSITY OF NORTH FLORIDA CARPENTER LIBRARY,"1 U N F Drive, Jacksonville, FL 32224, USA",30.2692476,-81.5083946,"1 U N F Drive, Jacksonville, FL 32224, USA",Match,Google
PENSACOLA STATE COLLEGE,"1000 College Blvd, Pensacola, FL 32504, USA",30.4809318,-87.2013052,"1000 College Blvd, Pensacola, FL 32504, USA",Match,Google
UNIVERSITY OF MIAMI,"1320 S Dixie Hwy, Coral Gables, FL 33146, USA",25.7191685,-80.2771253,"1320 S Dixie Hwy, Coral Gables, FL 33146, USA",Match,Google
FITCHBURG STATE COLLEGE,"160 Pearl St, Fitchburg, MA 01420, USA",42.5900165,-71.7889139,"160 Pearl St, Fitchburg, MA 01420, USA",Match,Google
UNIVERSITY OF FLORIDA,"Gainesville, FL 32611, USA",29.6436325,-82.3549302,"Gainesville, FL 32611, USA",Match,Google
UNIVERSITY OF ST. FRANCIS,"500 Wilcox St, Joliet, IL 60435, USA",41.5333799,-88.0970978,"500 Wilcox St, Joliet, IL 60435, USA",Match,Google
UNIVERSITY OF WEST FLORIDA,"Building 21, 11000 University Pkwy, Pensacola, FL 32514, USA",30.5474687,-87.216141,"Building 21, 11000 University Pkwy, Pensacola, FL 32514, USA",Match,Google
PALM BEACH COUNTY LIBRARY SYSTEM,"15801 Orange Blvd, Loxahatchee, FL 33470, USA",26.7807113,-80.2916087,"15801 Orange Blvd, Loxahatchee, FL 33470, USA",Match,Google
GETTYSBURG COLLEGE,"300 N Washington St, Gettysburg, PA 17325, USA",39.8356944,-77.2356339,"300 N Washington St, Gettysburg, PA 17325, USA",Match,Google
DEKALB LIBRARY SYSTEM,"3748 Central Ave, Doraville, GA 30340, USA",33.9015004,-84.2783348,"3748 Central Ave, Doraville, GA 30340, USA",Match,Google
GEORGE FOX UNIVERSITY,"414 N Meridian St, Newberg, OR 97132, USA",45.3033817,-122.9667381,"414 N Meridian St, Newberg, OR 97132, USA",Match,Google
GOERGIA COLLEGE & STATE UNIVERSITY,"231 W Hancock St, Milledgeville, GA 31061, USA",33.0798884,-83.2318054,"231 W Hancock St, Milledgeville, GA 31061, USA",Match,Google
GOLDEN GATE UNIVERSITY,"536 Mission St, San Francisco, CA 94105, USA",37.789292,-122.398982,"536 Mission St, San Francisco, CA 94105, USA",Match,Google
INDIANHEAD FEDERATED LIBRARY SYSTEM,"1538 Truax Blvd, Eau Claire, WI 54703, USA",44.8365546,-91.5307337,"1538 Truax Blvd, Eau Claire, WI 54703, USA",Match,Google
ALBERTUS MAGNUS COLLEGE,"700 Prospect St, New Haven, CT 06511, USA",41.3316093,-72.9226957,"700 Prospect St, New Haven, CT 06511, USA",Match,Google
BARRINGTON PUBLIC LIBRARY DISTRICT,"505 N Northwest Hwy, Barrington, IL 60010, USA",42.159425,-88.127628,"505 N Northwest Hwy, Barrington, IL 60010, USA",Match,Google
DES PLAINES PUBLIC LIBRARY,"1501 Ellinwood Ave, Des Plaines, IL 60016, USA",42.0404226,-87.8871992,"1501 Ellinwood Ave, Des Plaines, IL 60016, USA",Match,Google
DARIEN LIBRARY,"1441 Post Rd, Darien, CT 06820, USA",41.0687723,-73.4782658,"1441 Post Rd, Darien, CT 06820, USA",Match,Google
GREEN MOUNTAIN COLLEGE LIBRARY,"1 Brennan Cir, Poultney, VT 05764, USA",43.5167448,-73.2442058,"1 Brennan Cir, Poultney, VT 05764, USA",Match,Google
MERCER UNIVERSITY,"1501 Mercer University Dr, Macon, GA 31207, USA",32.8288186,-83.6497769,"1501 Mercer University Dr, Macon, GA 31207, USA",Match,Google
SCHAUMBURG TOWNSHIP DISTRICT LIBRARY,"130 S Roselle Rd, Schaumburg, IL 60193, USA",42.0255715,-88.0832931,"130 S Roselle Rd, Schaumburg, IL 60193, USA",Match,Google
GREENWICH LIBRARY,"101 West Putnam Avenue, Greenwich, CT 06830, USA",41.028905,-73.629477,"101 West Putnam Avenue, Greenwich, CT 06830, USA",Match,Google
GREAT RIVER REGIONAL LIBRARY,"1300 W St Germain St, St Cloud, MN 56301, USA",45.5568171,-94.1665905,"1300 W St Germain St, St Cloud, MN 56301, USA",Match,Google
QUINNIPIAC COLLEGE LIBRARY,"275 Mt Carmel Ave, Hamden, CT 06518, USA",41.4188174,-72.8940583,"275 Mt Carmel Ave, Hamden, CT 06518, USA",Match,Google
SOUTH WINDSOR PUBLIC LIBRARY,"1550 Sullivan Ave, South Windsor, CT 06074, USA",41.8287942,-72.5528995,"1550 Sullivan Ave, South Windsor, CT 06074, USA",Match,Google
UNIVERSITY OF WISCONSIN/EAU CLAIRE,"105 Garfield Ave, Eau Claire, WI 54701, USA",44.7967459,-91.5034191,"105 Garfield Ave, Eau Claire, WI 54701, USA",Match,Google
UNIVERSITY OF WISCONSIN MADISON GENERAL LIBRARY SYSTEM,"728 State St, Madison, WI 53706, USA",43.075434,-89.397867,"728 State St, Madison, WI 53706, USA",Match,Google
UNIVERSITY OF WISCONSIN/OSHKOSH,"800 Algoma Blvd, Oshkosh, WI 54901, USA",44.0253186,-88.5510215,"800 Algoma Blvd, Oshkosh, WI 54901, USA",Match,Google
UNIVERSITY OF WISCONSIN/PARKSIDE,"900 Wood Rd, Kenosha, WI 53144, USA",42.6439962,-87.8522648,"900 Wood Rd, Kenosha, WI 53144, USA",Match,Google
WISCONSIN DEPT PUB INSTRUCTION REF & LOAN LIBRARY,"1221 Innovation Dr #116, Whitewater, WI 53190, USA",42.838408,-88.7041011,"1221 Innovation Dr #116, Whitewater, WI 53190, USA",Match,Google
UNIVERSITY OF WISCONSIN/LA CROSS,"1725 State St, La Crosse, WI 54601, USA",43.8160517,-91.2311516,"1725 State St, La Crosse, WI 54601, USA",Match,Google
UNIVERSITY OF WIS GREEN BAY LIBRARY,"2420 Nicolet Dr, Green Bay, WI 54311, USA",44.5314227,-87.9212664,"2420 Nicolet Dr, Green Bay, WI 54311, USA",Match,Google
HOLY SPIRIT HOSPITAL MEDICAL LIBRARY,"254 Easton Ave, New Brunswick, NJ 08901, USA",40.5012421,-74.4596152,"254 Easton Ave, New Brunswick, NJ 08901, USA",Match,Google
HAMPSHIRE COLLEGE,"893 West St, Amherst, MA 01002, USA",42.325559,-72.5322956,"893 West St, Amherst, MA 01002, USA",Match,Google
HARRIS BEACH & WILCOX LLP,"99 Garnsey Rd, Pittsford, NY 14534, USA",43.051352,-77.4647296,"99 Garnsey Rd, Pittsford, NY 14534, USA",Match,Google
HENNEPIN COUNTY LIBRARY,"300 Nicollet Mall, Minneapolis, MN 55401, USA",44.9802568,-93.2700336,"300 Nicollet Mall, Minneapolis, MN 55401, USA",Match,Google
CLAREMONT COLLEGE THE,"3962, 747 N Dartmouth Ave, Claremont, CA 91711, United States",34.094399,-117.708296,"3962, 747 N Dartmouth Ave, Claremont, CA 91711, United States",Match,Google
RIVIER COLLEGE,"420 S Main St, Nashua, NH 03060, USA",42.7391326,-71.4542671,"420 S Main St, Nashua, NH 03060, USA",Match,Google
HOLY FAMILY UNIVERSITY,"9801 Frankford Ave, Philadelphia, PA 19114, USA",40.0609234,-74.9873319,"9801 Frankford Ave, Philadelphia, PA 19114, USA",Match,Google
CHATHAM COLLEGE,"1 Woodland Rd, Pittsburgh, PA 15232, USA",40.4482193,-79.9242625,"1 Woodland Rd, Pittsburgh, PA 15232, USA",Match,Google
UNIVERSITY OF HAWAII AT HILO,"200 W Kawili St, Hilo, HI 96720, USA",19.701015,-155.0814688,"200 W Kawili St, Hilo, HI 96720, USA",Match,Google
MERCY HOSPITAL MEDICAL CENTER,"2555 S King Dr, Chicago, IL 60616, USA",41.8461994,-87.6158113,"2555 S King Dr, Chicago, IL 60616, USA",Match,Google
HORACE GREELEY HIGH SCHOOL,"70 Roaring Brook Rd, Chappaqua, NY 10514, USA",41.1752353,-73.7579745,"70 Roaring Brook Rd, Chappaqua, NY 10514, USA",Match,Google
UNIVERSITY OF HARTFORD,"200 Bloomfield Ave, West Hartford, CT 06117, USA",41.7985989,-72.7140002,"200 Bloomfield Ave, West Hartford, CT 06117, USA",Match,Google
HUDSON VALLEY COMMUNITY COLLEGE,"80 Vandenburgh Ave, Troy, NY 12180, USA",42.6967457,-73.6854979,"80 Vandenburgh Ave, Troy, NY 12180, USA",Match,Google
VASSAR COLLEGE,"124 Raymond Ave, Poughkeepsie, NY 12604, USA",41.6867992,-73.8957002,"124 Raymond Ave, Poughkeepsie, NY 12604, USA",Match,Google
LONG ISLAND UNIVERSITY/C.W. POST CAMPUS,"720 Northern Blvd, Greenvale, NY 11548, USA",40.8172349,-73.5900738,"720 Northern Blvd, Greenvale, NY 11548, USA",Match,Google
DOWLING COLLEGE,"150 Idle Hour Blvd, Oakdale, NY 11769, USA",40.7422255,-73.1481218,"150 Idle Hour Blvd, Oakdale, NY 11769, USA",Match,Google
MOLLOY COLLEGE,"1000 Hempstead Ave, Rockville Centre, NY 11570, USA",40.6859799,-73.6263933,"1000 Hempstead Ave, Rockville Centre, NY 11570, USA",Match,Google
SUNY UPSTATE MEDICAL UNIVERSITY HEALTH SCIENCE LIBRARY,"766 Irving Ave, Syracuse, NY 13210, USA",43.0399702,-76.1386995,"766 Irving Ave, Syracuse, NY 13210, USA",Match,Google
UNIVERSITY OF HAWAII AT MANOA LIBRARY,"2550 McCarthy Mall, Honolulu, HI 96822, USA",21.3007437,-157.8162349,"2550 McCarthy Mall, Honolulu, HI 96822, USA",Match,Google
HUNTERDON COUNTY LIBRARY,"314 NJ-12, Flemington, NJ 08822, USA",40.5030023,-74.9012606,"314 NJ-12, Flemington, NJ 08822, USA",Match,Google
HOUSATONIC COMMUNITY TECHNICAL COLLEGE,"900 Lafayette Blvd, Bridgeport, CT 06604, USA",41.1753853,-73.1913907,"900 Lafayette Blvd, Bridgeport, CT 06604, USA",Match,Google
INDIANA UNIV PURDUE UNIVERSITY,"610 Purdue Mall, West Lafayette, IN 47907, USA",40.4237054,-86.9211946,"610 Purdue Mall, West Lafayette, IN 47907, USA",Match,Google
INDIANA UNIV SOUTH BEND,"1700 Mishawaka Ave, South Bend, IN 46615, United States",41.6621383,-86.2197175,"1700 Mishawaka Ave, South Bend, IN 46615, United States",Match,Google
DEPAUL UNIVERSITY,"1 E Jackson Blvd, Chicago, IL 60604, USA",41.877512,-87.627227,"1 E Jackson Blvd, Chicago, IL 60604, USA",Match,Google
EASTERN ILLINOIS UNIVERSITY,"600 Lincoln Ave, Charleston, IL 61920, USA",39.4836717,-88.1751507,"600 Lincoln Ave, Charleston, IL 61920, USA",Match,Google
ILLINOIS INSTITUTE OF TECHNOLOGY,"10 W 35th St, Chicago, IL 60616, USA",41.8348731,-87.6270059,"10 W 35th St, Chicago, IL 60616, USA",Match,Google
LOYOLA UNIVERSITY OF CHICAGO,"1032 W Sheridan Rd, Chicago, IL 60660, USA",41.9989483,-87.6582592,"1032 W Sheridan Rd, Chicago, IL 60660, USA",Match,Google
SOUTHERN IL UNIVERSITY AT EDWARDSVILLE,"1 Hairpin Dr, Edwardsville, IL 62025, USA",38.793103,-89.995654,"1 Hairpin Dr, Edwardsville, IL 62025, USA",Match,Google
WESTERN ILLINOIS UNIVERSITY,"1 University Cir, Macomb, IL 61455, USA",40.4726649,-90.685397,"1 University Cir, Macomb, IL 61455, USA",Match,Google
BRADLEY UNIVERSITY,"1501 W Bradley Ave, Peoria, IL 61625, USA",40.6977743,-89.6153484,"1501 W Bradley Ave, Peoria, IL 61625, USA",Match,Google
COLLEGE OF DUPAGE,"425 Fawell Blvd, Glen Ellyn, IL 60137, USA",41.8412349,-88.0730209,"425 Fawell Blvd, Glen Ellyn, IL 60137, USA",Match,Google
BALL STATE UNIVERSITY LIBRARY,"Bracken Library 210, Muncie, IN 47303, United States",40.2024197,-85.4072427,"Bracken Library 210, Muncie, IN 47303, United States",Match,Google
EUREKA COLLEGE,"300 E College Ave, Eureka, IL 61530, USA",40.71398,-89.267575,"300 E College Ave, Eureka, IL 61530, USA",Match,Google
UNIVERSITY OF SAINT FRANCIS,"2701 Spring St, Fort Wayne, IN 46808, USA",41.0865604,-85.1742097,"2701 Spring St, Fort Wayne, IN 46808, USA",Match,Google
BENEDICTINE UNIVERSITY,"5700 College Rd, Lisle, IL 60532, USA",41.7783779,-88.0967798,"5700 College Rd, Lisle, IL 60532, USA",Match,Google
ILLINOIS WESLEYAN UNIVERSITY,"1312 Park St, Bloomington, IL 61701, USA",40.4908892,-88.9906541,"1312 Park St, Bloomington, IL 61701, USA",Match,Google
SAINT XAVIER UNIVERSITY LIBRARY,"Chicago, IL 60655, USA",41.7071744,-87.7147553,"Chicago, IL 60655, USA",Match,Google
AUGUSTANA COLLEGE,"639 38th St, Rock Island, IL 61201, USA",41.5051053,-90.5507098,"639 38th St, Rock Island, IL 61201, USA",Match,Google
NORTH PARK UNIVERSITY,"3225 W Foster Ave, Chicago, IL 60625, USA",41.9747121,-87.7106078,"3225 W Foster Ave, Chicago, IL 60625, USA",Match,Google
PRAIRIE STATE COLLEGE,"202 S Halsted St, Chicago Heights, IL 60411, USA",41.5255653,-87.6386099,"202 S Halsted St, Chicago Heights, IL 60411, USA",Match,Google
DEPAUW UNIVERSITY LIBRARY,"11 E Larabee St, Greencastle, IN 46135, USA",39.6408554,-86.8637502,"11 E Larabee St, Greencastle, IN 46135, USA",Match,Google
INDIANA UNIVERSITY/EAST,"2325 Chester Blvd, Richmond, IN 47374, USA",39.86875,-84.8818165,"2325 Chester Blvd, Richmond, IN 47374, USA",Match,Google
EVANSTON PUBLIC LIBRARY,"1703 Orrington Ave, Evanston, IL 60201, USA",42.0483943,-87.6800306,"1703 Orrington Ave, Evanston, IL 60201, USA",Match,Google
SKOKIE PUBLIC LIBRARY,"5215 Oakton St, Skokie, IL 60077, USA",42.0257291,-87.7576986,"5215 Oakton St, Skokie, IL 60077, USA",Match,Google
TRINITY INTERNATIONAL UNIVERSITY,"2065 Half Day Rd, Deerfield, IL 60015, USA",42.1962259,-87.8809599,"2065 Half Day Rd, Deerfield, IL 60015, USA",Match,Google
UNIVERSITY OF INDIANAPOLIS,"1400 E Hanna Ave, Indianapolis, IN 46227, USA",39.709739,-86.1351076,"1400 E Hanna Ave, Indianapolis, IN 46227, USA",Match,Google
TEXAS STATE LIBRARY,"1201 Brazos St, Austin, TX 78701, USA",30.2739262,-97.7384342,"1201 Brazos St, Austin, TX 78701, USA",Match,Google
LAKE COUNTY PUBLIC LIBRARY,"1919 81st Ave, Merrillville, IN 46410, USA",41.4699019,-87.3594365,"1919 81st Ave, Merrillville, IN 46410, USA",Match,Google
TEXAS TECH UNIVERSITY,"2500 Broadway, Lubbock, TX 79409, USA",33.5842591,-101.8782822,"2500 Broadway, Lubbock, TX 79409, USA",Match,Google
INDIANA WESLEYAN UNIVERSITY,"4201 S Washington St, Marion, IN 46953, USA",40.5187313,-85.6626617,"4201 S Washington St, Marion, IN 46953, USA",Match,Google
UNIVERSITY OF NORTH TEXAS,"1155 Union Cir, Denton, TX 76203, USA",33.207488,-97.1525862,"1155 Union Cir, Denton, TX 76203, USA",Match,Google
NORTHWESTERN UNIVERSITY LIBRARY,"1970 Campus Dr, Evanston, IL 60201, USA",42.0530531,-87.6747985,"1970 Campus Dr, Evanston, IL 60201, USA",Match,Google
DRAKE UNIVERSITY,"2507 University Ave, Des Moines, IA 50311, USA",41.6029128,-93.6552984,"2507 University Ave, Des Moines, IA 50311, USA",Match,Google
BUENA VISTA COLLEGE,"610 W 4th St, Storm Lake, IA 50588, USA",42.6410826,-95.2098122,"610 W 4th St, Storm Lake, IA 50588, USA",Match,Google
SAINT AMBROSE UNIV IOWA,"518 Locust St, Davenport, IA 52803, USA",41.5404254,-90.5807611,"518 Locust St, Davenport, IA 52803, USA",Match,Google
NORTHWESTERN COLLEGE,"101 7th St SW, Orange City, IA 51041, USA",42.9979484,-96.0582598,"101 7th St SW, Orange City, IA 51041, USA",Match,Google
PURDUE UNIVERSITY NORTHWEST-HAMMOND CAMPUS,"2200 169th St, Hammond, IN 46323, USA",41.5808528,-87.4735602,"2200 169th St, Hammond, IN 46323, USA",Match,Google
PURDUE UNIVERSITY LIBRARY,"504 W State St, West Lafayette, IN 47907, USA",40.424507,-86.912541,"504 W State St, West Lafayette, IN 47907, USA",Match,Google
EASTERN NEW MEXICO UNIVERSITY,"1500 S Avenue K, Portales, NM 88130, USA",34.1777872,-103.3484264,"1500 S Avenue K, Portales, NM 88130, USA",Match,Google
UNIVERSITY OF NEW MEXICO,"Albuquerque, NM 87131, USA",35.0843187,-106.6197812,"Albuquerque, NM 87131, USA",Match,Google
WESTERN NEW MEXICO UNIVERSITY,"1000 W College Ave, Silver City, NM 88062, USA",32.7754152,-108.282934,"1000 W College Ave, Silver City, NM 88062, USA",Match,Google
NEW MEXICO STATE UNIVERSITY,"1780 E University Ave, Las Cruces, NM 88003, USA",32.2787745,-106.7479059,"1780 E University Ave, Las Cruces, NM 88003, USA",Match,Google
UNIVERSITY OF SOUTHERN INDIANA,"8600 University Blvd, Evansville, IN 47712, USA",37.9582437,-87.6746938,"8600 University Blvd, Evansville, IN 47712, USA",Match,Google
SAINT MARYS COLLEGE,"1928 St Marys Rd, Moraga, CA 94575, USA",37.8416252,-122.1098786,"1928 St Marys Rd, Moraga, CA 94575, USA",Partial Match,Google
SAINT JOSEPH COUNTY PUBLIC LIBRARY,"1150 Kern Rd, South Bend, IN 46614, USA",41.607159,-86.233925,"1150 Kern Rd, South Bend, IN 46614, USA",Match,Google
INDIANA STATE UNIVERSITY,"200 N 7th St, Terre Haute, IN 47809, USA",39.4711089,-87.4082349,"200 N 7th St, Terre Haute, IN 47809, USA",Match,Google
UNIVERSITY OF TEXAS AT DALLAS,"800 W Campbell Rd, Richardson, TX 75080, USA",32.9857619,-96.7500993,"800 W Campbell Rd, Richardson, TX 75080, USA",Match,Google
INDIANA UNIVERSITY KOKOMO,"2300 S Washington St, Kokomo, IN 46902, USA",40.4596897,-86.1314436,"2300 S Washington St, Kokomo, IN 46902, USA",Match,Google
UNIVERSITY OF TEXAS AT ARLINGTON,"701 W Nedderman Dr, Arlington, TX 76019, USA",32.7298718,-97.1140116,"701 W Nedderman Dr, Arlington, TX 76019, USA",Match,Google
VALPARAISO UNIVERSITY,"1700 Chapel Dr, Valparaiso, IN 46383, USA",41.463273,-87.042381,"1700 Chapel Dr, Valparaiso, IN 46383, USA",Match,Google
IOWA STATE UNIVERSITY,"Ames, IA 50011, USA",42.0266187,-93.6464654,"Ames, IA 50011, USA",Match,Google
UNIVERSITY OF TEXAS AT AUSTIN,"Austin, TX 78712, USA",30.2849185,-97.7340567,"Austin, TX 78712, USA",Match,Google
BAYLOR UNIVERSITY,"1301 S University Parks Dr, Waco, TX 76706, USA",31.5497007,-97.1143046,"1301 S University Parks Dr, Waco, TX 76706, USA",Match,Google
ZION-BENTON PUBLIC LIBRARY DISTRICT,"2400 Gabriel Ave, Zion, IL 60099, USA",42.451058,-87.839255,"2400 Gabriel Ave, Zion, IL 60099, USA",Match,Google
OLIVET NAZARENE UNIVERSITY,"1 University Ave, Bourbonnais, IL 60914, USA",41.1549071,-87.8723694,"1 University Ave, Bourbonnais, IL 60914, USA",Match,Google
LINCOLN LAND COMMUNITY COLLEGE,"5250 Shepherd Rd, Springfield, IL 62703, USA",39.7212664,-89.6117019,"5250 Shepherd Rd, Springfield, IL 62703, USA",Match,Google
ARLINGTON HEIGHTS MEMORIAL LIBRARY,"500 N Dunton Ave, Arlington Heights, IL 60004, USA",42.087641,-87.9835203,"500 N Dunton Ave, Arlington Heights, IL 60004, USA",Match,Google
JOHN CARROLL UNIVERSITY,"1 John Carroll Boulevard, University Heights, OH 44118, USA",41.4905062,-81.5293126,"1 John Carroll Boulevard, University Heights, OH 44118, USA",Match,Google
JOHNS HOPKINS UNIVERSITY,"Baltimore, MD 21218, USA",39.3299013,-76.6205177,"Baltimore, MD 21218, USA",Match,Google
BLESSING-RIEMAN COLLEGE OF NURSING,"1112 Spring St, Quincy, IL 62305, USA",39.9367117,-91.3981168,"1112 Spring St, Quincy, IL 62305, USA",Match,Google
AURORA PUBLIC LIBRARY,"14949 E Alameda Pkwy, Aurora, CO 80012, USA",39.7104005,-104.8151612,"14949 E Alameda Pkwy, Aurora, CO 80012, USA",Match,Google
VENTURA COUNTY LIBRARY,"651 E Main St, Ventura, CA 93001, USA",34.2810623,-119.2908183,"651 E Main St, Ventura, CA 93001, USA",Match,Google
JAMES V BROWN LIBRARY,"19 E 4th St, Williamsport, PA 17701, USA",41.242567,-77.00147,"19 E 4th St, Williamsport, PA 17701, USA",Match,Google
GRAHAM HOSPITAL ASSOCIATION,"210 W Walnut St, Canton, IL 61520, USA",40.5528182,-90.0390282,"210 W Walnut St, Canton, IL 61520, USA",Match,Google
BELLARMINE UNIVERSITY LIBRARY,"2001 Newburg Rd, Louisville, KY 40205, USA",38.2192297,-85.7049863,"2001 Newburg Rd, Louisville, KY 40205, USA",Match,Google
KENYON COLLEGE,"103 College Rd, Gambier, OH 43022, USA",40.3718965,-82.3983079,"103 College Rd, Gambier, OH 43022, USA",Match,Google
EASTERN KENTUCKY UNIVERSITY,"521 Lancaster Ave, Richmond, KY 40475, USA",37.7353214,-84.298672,"521 Lancaster Ave, Richmond, KY 40475, USA",Match,Google
NORTHERN KENTUCKY UNIVERSITY,"Louie B Nunn Dr, Highland Heights, KY 41099, USA",39.0312035,-84.4625345,"Louie B Nunn Dr, Highland Heights, KY 41099, USA",Match,Google
NEWMAN UNIVERSITY,"3100 McCormick St, Wichita, KS 67213, USA",37.673508,-97.377744,"3100 McCormick St, Wichita, KS 67213, USA",Match,Google
EMPORIA STATE UNIVERSITY,"1 Kellogg Cir, Emporia, KS 66801, USA",38.413874,-96.180139,"1 Kellogg Cir, Emporia, KS 66801, USA",Match,Google
KANSAS STATE UNIVERSITY,"Manhattan, KS 66506, USA",39.1974437,-96.5847249,"Manhattan, KS 66506, USA",Match,Google
WASHBURN UNIVERSITY,"1700 SW College Ave, Topeka, KS 66621, USA",39.0333113,-95.7017075,"1700 SW College Ave, Topeka, KS 66621, USA",Match,Google
SPALDING UNIVERSITY,"Egan Leadership Center, 901 S 4th St, Louisville, KY 40203, USA",38.2414273,-85.7574196,"Egan Leadership Center, 901 S 4th St, Louisville, KY 40203, USA",Match,Google
UNIVERSITY OF LOUISVILLE,"2301 S 3rd St, Louisville, KY 40292, USA",38.2122761,-85.7585023,"2301 S 3rd St, Louisville, KY 40292, USA",Match,Google
MURRAY STATE,"102 Curris Center, Murray, KY 42071, USA",36.6163842,-88.3214979,"102 Curris Center, Murray, KY 42071, USA",Match,Google
JOHNSON COUNTY LIBRARY,"9875 W 87th St, Overland Park, KS 66212, USA",38.9698596,-94.6994656,"9875 W 87th St, Overland Park, KS 66212, USA",Match,Google
KEENE STATE COLLEGE,"229 Main St, Keene, NH 03435, USA",42.9254972,-72.2803536,"229 Main St, Keene, NH 03435, USA",Match,Google
OLATHE PUBLIC LIBRARY,"201 E Park St, Olathe, KS 66061, USA",38.8817531,-94.8176701,"201 E Park St, Olathe, KS 66061, USA",Match,Google
TRANSYLVANIA COUNTY LIBRARY,"212 S Gaston St, Brevard, NC 28712, USA",35.2309818,-82.7357602,"212 S Gaston St, Brevard, NC 28712, USA",Match,Google
LENOIR-RHYNE COLLEGE,"625 7th Ave NE, Hickory, NC 28601, USA",35.7414291,-81.3262158,"625 7th Ave NE, Hickory, NC 28601, USA",Match,Google
UNIVERSITY OF NEBRASKA AT KEARNEY,"2504 9th Ave, Kearney, NE 68849, USA",40.7011879,-99.1014292,"2504 9th Ave, Kearney, NE 68849, USA",Match,Google
WICHITA STATE UNIVERSITY,"1845 Fairmount St, Wichita, KS 67260, USA",37.7193933,-97.2928693,"1845 Fairmount St, Wichita, KS 67260, USA",Match,Google
CAMPBELL COUNTY PUBLIC LIBRARY,"8333 Alexandria Pike, Alexandria, KY 41001, USA",38.951379,-84.394159,"8333 Alexandria Pike, Alexandria, KY 41001, USA",Match,Google
KENTUCKY STATE UNIVERSITY,"400 E Main St, Frankfort, KY 40601, USA",38.2002577,-84.8558314,"400 E Main St, Frankfort, KY 40601, USA",Match,Google
LAFAYETTE COLLEGE,"730 High St, Easton, PA 18042, USA",40.6986202,-75.2087298,"730 High St, Easton, PA 18042, USA",Match,Google
LASALLE UNIVERSITY,"1900 W Olney Ave, Philadelphia, PA 19141, USA",40.0387561,-75.1566322,"1900 W Olney Ave, Philadelphia, PA 19141, USA",Match,Google
LOUISIANA STATE UNIV AT ALEXANDRIA,"8100 US-71, Alexandria, LA 71302, USA",31.178112,-92.4143367,"8100 US-71, Alexandria, LA 71302, USA",Match,Google
UNIVERSITY OF NEBRASKA AT LINCOLN,"1400 R St, Lincoln, NE 68588, USA",40.8201966,-96.7004763,"1400 R St, Lincoln, NE 68588, USA",Match,Google
AMERICAN UNIVERSITY OF BEIRUT,"305 E 47th St, New York, NY 10017, USA",40.7528385,-73.9689989,"305 E 47th St, New York, NY 10017, USA",Match,Google
LESLEY COLLEGE,"29 Everett St, Cambridge, MA 02138, USA",42.3810755,-71.1174864,"29 Everett St, Cambridge, MA 02138, USA",Match,Google
MCNEESE STATE UNIVERSITY,"4205 Ryan St, Lake Charles, LA 70605, USA",30.1783657,-93.215629,"4205 Ryan St, Lake Charles, LA 70605, USA",Match,Google
LOYOLA UNIV LIBRARY (NEW ORLEANS),"6363 St Charles Ave # 198, New Orleans, LA 70118, USA",29.9355109,-90.1202423,"6363 St Charles Ave # 198, New Orleans, LA 70118, USA",Match,Google
LANDMARK COLLEGE,"19 River Rd S, Putney, VT 05346, USA",42.9767642,-72.5118469,"19 River Rd S, Putney, VT 05346, USA",Match,Google
UNIVERSITY OF NEW ORLEANS,"2000 Lakeshore Dr, New Orleans, LA 70148, USA",30.0285959,-90.0660365,"2000 Lakeshore Dr, New Orleans, LA 70148, USA",Match,Google
LOYOLA UNIV MARYLAND & NOTRE DAME OF MARYLAND UNIV,"200 Winston Ave, Baltimore, MD 21212, USA",39.3498203,-76.6169704,"200 Winston Ave, Baltimore, MD 21212, USA",Match,Google
LOCK HAVEN UNIVERSITY OF PENNSYLVANIA,"401 N Fairview St, Lock Haven, PA 17745, USA",41.1423205,-77.4621475,"401 N Fairview St, Lock Haven, PA 17745, USA",Match,Google
SOUTHEASTERN LOUISIANA UNIVERSITY,"500 W University Ave, Hammond, LA 70402, USA",30.5173159,-90.4688572,"500 W University Ave, Hammond, LA 70402, USA",Match,Google
SAINT TAMMANY PARISH LIBRARY,"310 W 21st Ave, Covington, LA 70433, USA",30.476904,-90.102905,"310 W 21st Ave, Covington, LA 70433, USA",Match,Google
LEBANON VALLEY COLLEGE,"101 College Ave, Annville, PA 17003, USA",40.3337415,-76.5150796,"101 College Ave, Annville, PA 17003, USA",Match,Google
CORALVILLE PUBLIC LIBRARY,"1401 5th St, Coralville, IA 52241, USA",41.677298,-91.582062,"1401 5th St, Coralville, IA 52241, USA",Match,Google
CHELSEA DISTRICT LIBRARY,"221 S Main St, Chelsea, MI 48118, USA",42.3165412,-84.0198648,"221 S Main St, Chelsea, MI 48118, USA",Match,Google
SAINT JOSEPHS COLLEGE,"71 Clement Rd, Rutland, VT 05701, USA",43.6002805,-73.0017438,"71 Clement Rd, Rutland, VT 05701, USA",Partial Match,Google
MASSACHUSETTS SCH OF PROFESSIONAL PSYCHOLOGY,"1 Wells Ave, Newton, MA 02459, USA",42.2949927,-71.2032348,"1 Wells Ave, Newton, MA 02459, USA",Partial Match,Google
MANSFIELD UNIVERSITY LIBRARY,"5 Swan St, Mansfield, PA 16933, USA",41.8074846,-77.0737268,"5 Swan St, Mansfield, PA 16933, USA",Match,Google
BRANDEIS UNIVERSITY,"415 South St, Waltham, MA 02453, USA",42.3654796,-71.2587009,"415 South St, Waltham, MA 02453, USA",Match,Google
CENTRAL MISSOURI STATE UNIVERSITY,"108 W South St, Warrensburg, MO 64093, USA",38.7580823,-93.7383724,"108 W South St, Warrensburg, MO 64093, USA",Match,Google
ENOCH PRATT FREE LIBRARY,"400 Cathedral St, Baltimore, MD 21201, USA",39.294555,-76.617217,"400 Cathedral St, Baltimore, MD 21201, USA",Match,Google
UNIVERSITY OF BALTIMORE LAW LIBRARY,"1420 N Charles St, Baltimore, MD 21201, USA",39.3061598,-76.6162325,"1420 N Charles St, Baltimore, MD 21201, USA",Match,Google
MIDDLEBURY COLLEGE,"14 Old Chapel Rd, Middlebury, VT 05753, USA",44.0082595,-73.1773152,"14 Old Chapel Rd, Middlebury, VT 05753, USA",Match,Google
MAINE STATE LIBRARY,"230 State St, Augusta, ME 04333, USA",44.306073,-69.7827403,"230 State St, Augusta, ME 04333, USA",Match,Google
MISSISSIPPI STATE UNIVERSITY,"B. S. Hood Rd, Starkville, MS 39759, USA",33.4551742,-88.7943766,"B. S. Hood Rd, Starkville, MS 39759, USA",Match,Google
MINNESOTA SCHOOL OF PROFESSIONAL PSYCHOLOGY,"1515 Central Pkwy, Eagan, MN 55121, USA",44.837312,-93.173898,"1515 Central Pkwy, Eagan, MN 55121, USA",Match,Google
MONTGOMERY COUNTY COMMUNITY COLLEGE,"340 Dekalb Pike, Blue Bell, PA 19422, USA",40.1763373,-75.2755938,"340 Dekalb Pike, Blue Bell, PA 19422, USA",Match,Google
MT. HOOD COMMUNITY COLLEGE,"26000 SE Stark St, Gresham, OR 97030, USA",45.5146461,-122.3966333,"26000 SE Stark St, Gresham, OR 97030, USA",Match,Google
MANCHESTER COMMUNITY COLLEGE,"60 Bidwell St, Manchester, CT 06040, USA",41.7606485,-72.5619284,"60 Bidwell St, Manchester, CT 06040, USA",Match,Google
PENN STATE HERSHEY - H127,"500 University Dr, Hershey, PA 17033, USA",40.2643702,-76.6747274,"500 University Dr, Hershey, PA 17033, USA",Match,Google
MINUTEMAN LIBRARY NETWORK,"10 Strathmore Rd, Natick, MA 01760, USA",42.295995,-71.386693,"10 Strathmore Rd, Natick, MA 01760, USA",Match,Google
MIDDLESEX COMMUNITY COLLEGE LIBRARY,"50 Kearney Square, Lowell, MA 01852, USA",42.6452129,-71.3061428,"50 Kearney Square, Lowell, MA 01852, USA",Match,Google
MERCER COUNTY LIBRARY,"2751 Brunswick Pike, Lawrence Township, NJ 08648, USA",40.2662976,-74.718801,"2751 Brunswick Pike, Lawrence Township, NJ 08648, USA",Match,Google
MONMOUTH UNIVERSITY,"400 Cedar Ave, West Long Branch, NJ 07764, USA",40.2804557,-74.0058114,"400 Cedar Ave, West Long Branch, NJ 07764, USA",Match,Google
UNIVERSITY OF MISSOURI COLUMBIA HEALTH SCIENCE,"1 Hospital Dr, Columbia, MO 65201, USA",38.9398848,-92.3286771,"1 Hospital Dr, Columbia, MO 65201, USA",Match,Google
AUGSBURG COLLEGE,"2211 Riverside Ave, Minneapolis, MN 55454, USA",44.9663002,-93.2401366,"2211 Riverside Ave, Minneapolis, MN 55454, USA",Match,Google
CONCORDIA UNIVERSITY/ST. PAUL,"1282 Concordia Ave, St Paul, MN 55104, USA",44.9490553,-93.1565816,"1282 Concordia Ave, St Paul, MN 55104, USA",Match,Google
ST CATHERINE UNIVERSITY LIBRARY,"St Paul, MN 55105, USA",44.9248512,-93.1836173,"St Paul, MN 55105, USA",Match,Google
WINONA STATE UNIVERSITY,"175 W Mark St, Winona, MN 55987, USA",44.0473997,-91.6432837,"175 W Mark St, Winona, MN 55987, USA",Match,Google
BETHEL UNIVERSITY,"3901-3965 Snelling Ave N, Arden Hills, MN 55112, USA",45.0554785,-93.1659821,"3901-3965 Snelling Ave N, Arden Hills, MN 55112, USA",Match,Google
MONTGOMERY COUNTY NORRISTOWN PUBLIC LIBRARY,"1001 Powell St, Norristown, PA 19401, USA",40.1218759,-75.3403799,"1001 Powell St, Norristown, PA 19401, USA",Match,Google
MANKATO STATE UNIVERSITY,"Minnesota State University, Mankato, 730 Maywood Ave, Mankato, MN 56001, United States",44.1458114,-93.9994861,"Minnesota State University, Mankato, 730 Maywood Ave, Mankato, MN 56001, United States",Match,Google
UNIVERSITY OF ST. THOMAS,"2115 Summit Ave, St Paul, MN 55105, USA",44.941751,-93.1914909,"2115 Summit Ave, St Paul, MN 55105, USA",Match,Google
SOUTHWEST STATE UNIVERSITY,"1501 State St, Marshall, MN 56258, USA",44.4560884,-95.759773,"1501 State St, Marshall, MN 56258, USA",Match,Google
MORAVIAN COLLEGE,"1200 Main St, Bethlehem, PA 18018, USA",40.6308814,-75.3812135,"1200 Main St, Bethlehem, PA 18018, USA",Match,Google
STEPHENS COLLEGE,"1200 E Broadway, Columbia, MO 65215, USA",38.9515728,-92.3214357,"1200 E Broadway, Columbia, MO 65215, USA",Match,Google
MASSACHUSETTS COLLEGE OF PHARMACY,"179 Longwood Ave, Boston, MA 02115, USA",42.3367994,-71.101197,"179 Longwood Ave, Boston, MA 02115, USA",Match,Google
NORTHWEST AREA HEALTH EDUCATION CENTER LIBRARY AT BOONE,"336 Deerfield Rd, Boone, NC 28607, USA",36.198777,-81.652227,"336 Deerfield Rd, Boone, NC 28607, USA",Match,Google
MARIETTA COLLEGE,"215 5th St, Marietta, OH 45750, USA",39.4166565,-81.4499351,"215 5th St, Marietta, OH 45750, USA",Match,Google
MARYLHURST UNIVERSITY,"17600 Pacific Hwy, Marylhurst, OR 97036, USA",45.3985866,-122.6472524,"17600 Pacific Hwy, Marylhurst, OR 97036, USA",Match,Google
MESA PUBLIC LIBRARY,"64 E 1st St, Mesa, AZ 85201, USA",33.4182341,-111.8295668,"64 E 1st St, Mesa, AZ 85201, USA",Match,Google
MASSASOIT COMMUNITY COLLEGE,"1 Massasoit Blvd, Brockton, MA 02302, USA",42.0756099,-70.9902714,"1 Massasoit Blvd, Brockton, MA 02302, USA",Match,Google
SAINT CLOUD STATE UNIVERSITY,"720 4th Ave S, St Cloud, MN 56301, USA",45.5511864,-94.1515137,"720 4th Ave S, St Cloud, MN 56301, USA",Match,Google
MORGAN STATE UNIVERSITY,"1700 E Cold Spring Ln, Baltimore, MD 21251, USA",39.3437959,-76.5843847,"1700 E Cold Spring Ln, Baltimore, MD 21251, USA",Match,Google
MOUNT IDA COLLEGE,"777 Dedham St, Newton, MA 02459, USA",42.294262,-71.193448,"777 Dedham St, Newton, MA 02459, USA",Match,Google
UNIVERSITY OF MONTANA,"32 Campus Dr, Missoula, MT 59812, USA",46.8600672,-113.9852081,"32 Campus Dr, Missoula, MT 59812, USA",Match,Google
NAUGATUCK VALLEY COMMUNITY TECHNICAL COLLEGE,"750 Chase Pkwy, Waterbury, CT 06708, USA",41.5498286,-73.0729008,"750 Chase Pkwy, Waterbury, CT 06708, USA",Match,Google
UNIVERSITY OF MISSOURI COLUMBIA,"Columbia, MO 65211, USA",38.9403808,-92.3277375,"Columbia, MO 65211, USA",Match,Google
MARYVILLE UNIVERSITY OF ST. LOUIS,"650 Maryville University Dr, St. Louis, MO 63141, USA",38.644986,-90.504679,"650 Maryville University Dr, St. Louis, MO 63141, USA",Match,Google
MILLERSVILLE UNIVERSITY LIBRARY,"9 N George St, Millersville, PA 17551, USA",39.9981892,-76.3550635,"9 N George St, Millersville, PA 17551, USA",Match,Google
MARYLAND INSTITUTE COLLEGE OF ART,"1300 W Mt Royal Ave, Baltimore, MD 21217, USA",39.307555,-76.6216339,"1300 W Mt Royal Ave, Baltimore, MD 21217, USA",Match,Google
MASSACHUSETTS INSTITUTE OF TECHNOLOGY LIBRARIES,"160 Memorial Dr, Cambridge, MA 02142, USA",42.3590348,-71.0891378,"160 Memorial Dr, Cambridge, MA 02142, USA",Match,Google
UNIVERSITY OF NEVADA LAS VEGAS LAW LIBRARY,"4505 S Maryland Pkwy, Las Vegas, NV 89154, USA",36.1079277,-115.1399304,"4505 S Maryland Pkwy, Las Vegas, NV 89154, USA",Match,Google
NASSAU LIBRARY SYSTEM,"900 Jerusalem Ave, Uniondale, NY 11553, USA",40.695843,-73.585235,"900 Jerusalem Ave, Uniondale, NY 11553, USA",Match,Google
UNIVERSITY OF ALBANY,"1400 Washington Ave, Albany, NY 12222, USA",42.6857636,-73.8243942,"1400 Washington Ave, Albany, NY 12222, USA",Match,Google
DOANE COLLEGE LIBRARY,"1014 Boswell Ave, Crete, NE 68333, USA",40.6224954,-96.9483697,"1014 Boswell Ave, Crete, NE 68333, USA",Match,Google
UNIVERSITY OF NEBRASKA AT OMAHA,"6001 Dodge St, Omaha, NE 68182, USA",41.2582497,-96.0107049,"6001 Dodge St, Omaha, NE 68182, USA",Match,Google
NEBRASKA METHODIST COLLEGE,"720 N 87th St, Omaha, NE 68114, USA",41.265533,-96.04837,"720 N 87th St, Omaha, NE 68114, USA",Match,Google
CAMDEN COUNTY LIBRARY,"203 Laurel Rd, Voorhees Township, NJ 08043, USA",39.848129,-75.001197,"203 Laurel Rd, Voorhees Township, NJ 08043, USA",Match,Google
UNION COLLEGE,"807 Union St, Schenectady, NY 12308, USA",42.8177125,-73.9295987,"807 Union St, Schenectady, NY 12308, USA",Match,Google
NEW CANAAN LIBRARY,"151 Main St, New Canaan, CT 06840, USA",41.1456241,-73.4920934,"151 Main St, New Canaan, CT 06840, USA",Match,Google
NORTH DAKOTA STATE LIBRARY,"604 E Boulevard Ave, Bismarck, ND 58505, USA",46.8192455,-100.7813545,"604 E Boulevard Ave, Bismarck, ND 58505, USA",Match,Google
NORTHEASTERN UNIVERSITY,"360 Huntington Ave, Boston, MA 02115, USA",42.3398067,-71.0891717,"360 Huntington Ave, Boston, MA 02115, USA",Match,Google
FARGO PUBLIC LIBRARY,"2801 32nd Ave S, Fargo, ND 58103, USA",46.8332,-96.827039,"2801 32nd Ave S, Fargo, ND 58103, USA",Match,Google
JERICHO PUBLIC LIBRARY,"1 Merry Ln, Jericho, NY 11753, USA",40.793611,-73.535108,"1 Merry Ln, Jericho, NY 11753, USA",Match,Google
BRYANT LIBRARY,"2 Papermill Rd, Roslyn, NY 11576, USA",40.798217,-73.646786,"2 Papermill Rd, Roslyn, NY 11576, USA",Match,Google
UNIVERSITY OF NORTH CAROLINA GREENSBORO,"1400 Spring Garden St, Greensboro, NC 27412, USA",36.0689296,-79.8101975,"1400 Spring Garden St, Greensboro, NC 27412, USA",Match,Google
GARDNER-WEBB UNIVERSITY,"110 S Main St, Boiling Springs, NC 28017, USA",35.2475249,-81.6706979,"110 S Main St, Boiling Springs, NC 28017, USA",Match,Google
SYOSSET PUBLIC LIBRARY,"225 S Oyster Bay Rd, Syosset, NY 11791, USA",40.7987333,-73.5020748,"225 S Oyster Bay Rd, Syosset, NY 11791, USA",Match,Google
NEW HAMPSHIRE COMMUNITY-TECH COLLEGE,"646 Union St # 300, Littleton, NH 03561, USA",44.308442,-71.7482221,"646 Union St # 300, Littleton, NH 03561, USA",Match,Google
UNIVERSITY OF NEW HAMPSHIRE,"105 Main St, Durham, NH 03824, USA",43.138948,-70.9370252,"105 Main St, Durham, NH 03824, USA",Match,Google
UNIVERSITY OF NORTHERN IOWA,"1227 W 27th St, Cedar Falls, IA 50614, USA",42.5133893,-92.4620034,"1227 W 27th St, Cedar Falls, IA 50614, USA",Match,Google
NEW JERSEY DEPARTMENT OF ENVIRONMENTAL PROTECTION,"436 E State St, Trenton, NJ 08608, USA",40.2212788,-74.7561441,"436 E State St, Trenton, NJ 08608, USA",Match,Google
ROWAN UNIVERSITY,"201 Mullica Hill Rd, Glassboro, NJ 08028, USA",39.7098595,-75.1189478,"201 Mullica Hill Rd, Glassboro, NJ 08028, USA",Match,Google
UNIVERSITY OF MEDICINE AND DENTISTRY OF NEW JERSEY,"65 Bergen St, Newark, NJ 07103, USA",40.7432716,-74.1921598,"65 Bergen St, Newark, NJ 07103, USA",Match,Google
WILLIAM PATERSON COLLEGE,"Atrium, 300 Pompton Rd, Wayne, NJ 07470, USA",40.9460061,-74.1981377,"Atrium, 300 Pompton Rd, Wayne, NJ 07470, USA",Match,Google
NEW JERSEY ILL ACCESS CENTER,"347 Mt Pleasant Ave #100, West Orange, NJ 07052, USA",40.789695,-74.259107,"347 Mt Pleasant Ave #100, West Orange, NJ 07052, USA",Match,Google
RICHARD STOCKTON COLLEGE,"101 Vera King Farris Dr, Galloway, NJ 08205, USA",39.4941665,-74.5323795,"101 Vera King Farris Dr, Galloway, NJ 08205, USA",Match,Google
THE COLLEGE OF NEW JERSEY,"2000 Pennington Rd, Ewing Township, NJ 08618, USA",40.2683078,-74.7778624,"2000 Pennington Rd, Ewing Township, NJ 08618, USA",Match,Google
BAY PATH COLLEGE,"588 Longmeadow St, Longmeadow, MA 01106, USA",42.0558784,-72.5825941,"588 Longmeadow St, Longmeadow, MA 01106, USA",Match,Google
ELMS COLLEGE,"291 Springfield St, Chicopee, MA 01013, USA",42.1422257,-72.6016769,"291 Springfield St, Chicopee, MA 01013, USA",Match,Google
UNIVERSITY OF NORTH CAROLINA CHARLOTTE,"9201 University City Blvd, Charlotte, NC 28223, USA",35.3070929,-80.735164,"9201 University City Blvd, Charlotte, NC 28223, USA",Match,Google
SPRINGFIELD COLLEGE,"263 Alden St, Springfield, MA 01109, USA",42.1022292,-72.5565631,"263 Alden St, Springfield, MA 01109, USA",Match,Google
NICHOLSON MEMORIAL LIBRARY,"625 Austin St, Garland, TX 75040, USA",32.9148722,-96.6383649,"625 Austin St, Garland, TX 75040, USA",Match,Google
MIDDLESEX COUNTY COLLEGE,"2600 Woodbridge Ave, Edison, NJ 08837, USA",40.5048319,-74.3667479,"2600 Woodbridge Ave, Edison, NJ 08837, USA",Match,Google
DAVIDSON COLLEGE,"405 N Main St, Davidson, NC 28035, USA",35.5008018,-80.8446725,"405 N Main St, Davidson, NC 28035, USA",Match,Google
UNIVERSITY OF NEVADE RENO,"1664 N Virginia St, Reno, NV 89557, USA",39.5441917,-119.816397,"1664 N Virginia St, Reno, NV 89557, USA",Match,Google
UNIVERSITY OF NORTH CAROLINA CHAPEL HILL,"Chapel Hill, NC, USA",35.9049122,-79.0469134,"Chapel Hill, NC, USA",Match,Google
NORTH CAROLINA STATE UNIVERSITY AT RALEIGH LIBRARY,"Raleigh, NC 27695, USA",35.7846633,-78.6820946,"Raleigh, NC 27695, USA",Match,Google
NORWICH UNIVERSITY LIBRARY,"158 Harmon Dr, Northfield, VT 05663, USA",44.1369851,-72.6602774,"158 Harmon Dr, Northfield, VT 05663, USA",Match,Google
NATIONAL RESEARCH COUNCIL LIBRARY,"M-55, 1200 Montreal Rd, Ottawa, ON K1A 0R6, Canada",45.443858,-75.6195916,"M-55, 1200 Montreal Rd, Ottawa, ON K1A 0R6, Canada",Match,Google
NEW YORK CENTER FOR AGRICULTURAL MEDICINE & HEALTH LIBRARY,"6160 NY-28, Fly Creek, NY 13337, USA",42.717838,-74.9787202,"6160 NY-28, Fly Creek, NY 13337, USA",Match,Google
GUILFORD COLLEGE,"5800 W Friendly Ave, Greensboro, NC 27410, USA",36.0917988,-79.8887399,"5800 W Friendly Ave, Greensboro, NC 27410, USA",Match,Google
UNIVERSITY OF IOWA LIBRARY,"125 W Washington St, Iowa City, IA 52242, USA",41.659548,-91.5384411,"125 W Washington St, Iowa City, IA 52242, USA",Match,Google
LAS VEGAS-CLARK COUNTY LIBRARY DISTRICT,"951 W Lake Mead Blvd, Las Vegas, NV 89106, USA",36.1952731,-115.1543178,"951 W Lake Mead Blvd, Las Vegas, NV 89106, USA",Match,Google
SIERRA NEVADA COLLEGE,"999 Tahoe Blvd, Incline Village, NV 89451, USA",39.244983,-119.937574,"999 Tahoe Blvd, Incline Village, NV 89451, USA",Match,Google
NEVADA STATE LIBRARY AND ARCHIVES,"100 N Stewart St, Carson City, NV 89701, USA",39.1638936,-119.7648587,"100 N Stewart St, Carson City, NV 89701, USA",Match,Google
MORRIS COUNTY LIBRARY,"30 E Hanover Ave, Whippany, NJ 07981, USA",40.806441,-74.452471,"30 E Hanover Ave, Whippany, NJ 07981, USA",Match,Google
NORTH DAKOTA STATE UNIVERSITY,"1340 Administration Ave, Fargo, ND 58105, USA",46.8962434,-96.8031712,"1340 Administration Ave, Fargo, ND 58105, USA",Match,Google
HOPKINTON TOWN LIBRARY,"61 Houston Dr, Contoocook, NH 03229, USA",43.223245,-71.72023,"61 Houston Dr, Contoocook, NH 03229, USA",Match,Google
WAKE COUNTY PUBLIC LIBRARY,"1930 Clark Ave, Raleigh, NC 27605, USA",35.789611,-78.6579744,"1930 Clark Ave, Raleigh, NC 27605, USA",Match,Google
CONCORDIA COLLEGE,"901 8th St S, Moorhead, MN 56562, USA",46.8628042,-96.7700579,"901 8th St S, Moorhead, MN 56562, USA",Match,Google
ALBANY MOLECULAR RESEARCH INC.,"26 Corporate Cir, Albany, NY 12203, USA",42.703206,-73.8746138,"26 Corporate Cir, Albany, NY 12203, USA",Match,Google
BLACK WATCH MEMORIAL LIBRARY,"99 Montcalm St, Ticonderoga, NY 12883, USA",43.848874,-73.425329,"99 Montcalm St, Ticonderoga, NY 12883, USA",Match,Google
NEW YORK STATE LIBRARY,"222 Madison Ave, Seventh Floor, Albany, NY 12230, United States",42.648614,-73.761391,"222 Madison Ave, Seventh Floor, Albany, NY 12230, United States",Match,Google
HOLY TRINITY ORTHODOX SEMINARY LIBRARY,"1072 County Rd 46, Mohawk, NY 13407, USA",42.9276619,-74.9356279,"1072 County Rd 46, Mohawk, NY 13407, USA",Match,Google
NEW YORK PUBLIC LIBRARY,"476 5th Ave, New York, NY 10018, USA",40.7531823,-73.9822534,"476 5th Ave, New York, NY 10018, USA",Match,Google
NYS OFFICE OF THE ATTORNEY GENERAL LIBRARY,"3 E Pulteney Square, Bath, NY 14810, USA",42.3324756,-77.3177285,"3 E Pulteney Square, Bath, NY 14810, USA",Match,Google
ONSLOW COUNTY PUBLIC LIBRARY,"58 Doris Ave E, Jacksonville, NC 28540, USA",34.7778256,-77.42082,"58 Doris Ave E, Jacksonville, NC 28540, USA",Match,Google
OLD COLONY LIBRARY NETWORK,"220 Forbes Rd, Braintree, MA 02184, USA",42.21911,-71.035613,"220 Forbes Rd, Braintree, MA 02184, USA",Match,Google
OCEAN COUNTY LIBRARY,"101 Washington St, Toms River, NJ 08753, USA",39.9523537,-74.1957355,"101 Washington St, Toms River, NJ 08753, USA",Match,Google
COLUMBUS METROPOLITAN LIBRARY OCORM,"511 S Hague Ave, Columbus, OH 43204, USA",39.9447736,-83.0733812,"511 S Hague Ave, Columbus, OH 43204, USA",Partial Match,Google
PUBLIC LIBRARY OF CINCINNATI/HAMILTON COUNTY,"7450 State Rd, Cincinnati, OH 45230, USA",39.0850121,-84.3522206,"7450 State Rd, Cincinnati, OH 45230, USA",Match,Google
CINCINNATI STATE TECHNICAL AND COMMUNITY COLLEGE LIBRARY,"170 Main Building, 3520 Central Pkwy, Cincinnati, OH 45223, United States",39.1499185,-84.5369451,"170 Main Building, 3520 Central Pkwy, Cincinnati, OH 45223, United States",Match,Google
UNIVERSITY OF THE WITWATERSRAND (0730),"1 Jan Smuts Ave, Johannesburg, 2000, South Africa",-26.1916888,28.0327614,"1 Jan Smuts Ave, Johannesburg, 2000, South Africa",Match,Google
STATE LIBRARY OF OHIO,"274 E 1st Ave #100, Columbus, OH 43201, USA",39.9811221,-82.9965616,"274 E 1st Ave #100, Columbus, OH 43201, USA",Match,Google
OKLAHOMA DEPARTMENT OF LIBRARIES,"200 NE 18th St, Oklahoma City, OK 73105, USA",35.487946,-97.5077929,"200 NE 18th St, Oklahoma City, OK 73105, USA",Match,Google
UNIVERSITY OF OKLAHOMA HEALTH SCIENCE CENTER LIBRARY,"1105 N Stonewall Ave, Oklahoma City, OK 73117, USA",35.4795825,-97.4940923,"1105 N Stonewall Ave, Oklahoma City, OK 73117, USA",Match,Google
PIONEER LIBRARY SYSTEM,"225 N Webster Ave, Norman, OK 73069, USA",35.2210802,-97.4471037,"225 N Webster Ave, Norman, OK 73069, USA",Match,Google
UNIVERSITY OF OKLAHOMA,"660 Parrington Oval, Norman, OK 73019, USA",35.2058936,-97.4457137,"660 Parrington Oval, Norman, OK 73019, USA",Match,Google
OKLAHOMA CITY UNIVERSITY LAW LIBRARY,"800 N Harvey Ave, Oklahoma City, OK 73102, USA",35.4755852,-97.5169404,"800 N Harvey Ave, Oklahoma City, OK 73102, USA",Match,Google
LINFIELD COLLEGE/PORTLAND CAMPUS,"2255 NW Northrup St, Portland, OR 97210, USA",45.53141,-122.6975639,"2255 NW Northrup St, Portland, OR 97210, USA",Match,Google
LEWIS & CLARK COLLEGE,"0615 SW Palatine Hill Rd, Portland, OR 97219, USA",45.4490949,-122.670312,"0615 SW Palatine Hill Rd, Portland, OR 97219, USA",Match,Google
HOMER TOWNSHIP PUBLIC LIBRARY DISTRICT,"14320 W 151st St, Homer Glen, IL 60491, USA",41.6142597,-87.9674423,"14320 W 151st St, Homer Glen, IL 60491, USA",Match,Google
JOLIET PUBLIC LIBRARY,"150 N Ottawa St, Joliet, IL 60432, USA",41.5271303,-88.0822271,"150 N Ottawa St, Joliet, IL 60432, USA",Match,Google
PACIFIC UNIVERSITY,"2043 College Way, Forest Grove, OR 97116, USA",45.5209028,-123.1096408,"2043 College Way, Forest Grove, OR 97116, USA",Match,Google
PACIFIC LUTHERAN UNIVERSITY,"12180 Park Ave S, Tacoma, WA 98447, USA",47.1453532,-122.4440668,"12180 Park Ave S, Tacoma, WA 98447, USA",Match,Google
WESTLAKE PORTER PUBLIC LIBRARY,"27333 Center Ridge Rd, Westlake, OH 44145, USA",41.447729,-81.924646,"27333 Center Ridge Rd, Westlake, OH 44145, USA",Match,Google
PORTLAND COMMUNITY COLLEGE,"2305 SE 82nd Ave, Portland, OR 97216, USA",45.50658,-122.580217,"2305 SE 82nd Ave, Portland, OR 97216, USA",Match,Google
WASHINGTON COUNTY COOPERATIVE LIBRARY SERVICES,"111 NE Lincoln St, Hillsboro, OR 97124, USA",45.524195,-122.9892931,"111 NE Lincoln St, Hillsboro, OR 97124, USA",Match,Google
REED COLLEGE,"3203 SE Woodstock Blvd, Portland, OR 97202, USA",45.4809782,-122.6303724,"3203 SE Woodstock Blvd, Portland, OR 97202, USA",Match,Google
UNIVERSITY OF OREGON LIBRARY,"1585 E 13th Ave, Eugene, OR 97403, USA",44.0448302,-123.0726055,"1585 E 13th Ave, Eugene, OR 97403, USA",Match,Google
PORTLAND STATE UNIVERSITY LIBRARY,"1875 SW Park Ave, Portland, OR 97201, USA",45.5115796,-122.6860416,"1875 SW Park Ave, Portland, OR 97201, USA",Match,Google
SOUTHERN STATE COMMUNITY COLLEGE,"100 Hobart Dr, Hillsboro, OH 45133, USA",39.2364808,-83.6139477,"100 Hobart Dr, Hillsboro, OH 45133, USA",Match,Google
OREGON STATE LIBRARY,"201 SW Waldo Pl, Corvallis, OR 97331, USA",44.565074,-123.2760409,"201 SW Waldo Pl, Corvallis, OR 97331, USA",Match,Google
THE OHIO STATE UNIVERSITY,"Columbus, OH 43210, USA",40.0141905,-83.0309143,"Columbus, OH 43210, USA",Match,Google
OTTERBEIN COLLEGE,"1 S Grove St, Westerville, OH 43081, USA",40.1268746,-82.9371852,"1 S Grove St, Westerville, OH 43081, USA",Match,Google
ROGERS UNIVERSITY,"1701 W Will Rogers Blvd, Claremore, OK 74017, USA",36.3182518,-95.6406352,"1701 W Will Rogers Blvd, Claremore, OK 74017, USA",Match,Google
OKLAHOMA STATE UNIVERSITY OKLAHOMA CITY LIBRARY,"900 N Portland Ave, Oklahoma City, OK 73107, USA",35.4755979,-97.5820988,"900 N Portland Ave, Oklahoma City, OK 73107, USA",Match,Google
UNIVERSITY OF PORTLAND LIBRARY,"5000 N Willamette Blvd, Portland, OR 97203, USA",45.5728055,-122.7267515,"5000 N Willamette Blvd, Portland, OR 97203, USA",Match,Google
TULSA COMMUNITY COLLEGE,"3727 E Apache St, Tulsa, OK 74115, USA",36.1935335,-95.9377989,"3727 E Apache St, Tulsa, OK 74115, USA",Match,Google
WILLAMETTE UNIVERSITY,"900 State St, Salem, OR 97301, USA",44.9355088,-123.0299071,"900 State St, Salem, OR 97301, USA",Match,Google
DELEWARE VALLEY COLLEGE,"700 E Butler Ave, Doylestown, PA 18901, USA",40.2982282,-75.1599429,"700 E Butler Ave, Doylestown, PA 18901, USA",Partial Match,Google
GREENSBURG HEMPFIELD AREA LIBRARY,"237 S Pennsylvania Ave, Greensburg, PA 15601, USA",40.3003329,-79.5444113,"237 S Pennsylvania Ave, Greensburg, PA 15601, USA",Match,Google
UNIVERSITY OF THE ARTS,"333 S Broad St, Philadelphia, PA 19102, USA",39.9459207,-75.1649037,"333 S Broad St, Philadelphia, PA 19102, USA",Match,Google
UNIVERSITY OF PENNSYLVANIA LIBRARIES,"3420 Walnut St, Philadelphia, PA 19104, USA",39.9527236,-75.1940023,"3420 Walnut St, Philadelphia, PA 19104, USA",Match,Google
DAVIS COLLEGE,"4747 Monroe St, Toledo, OH 43623, USA",41.6925701,-83.6297633,"4747 Monroe St, Toledo, OH 43623, USA",Match,Google
BETHLEHEM AREA PUBLIC LIBRARY,"11 W Church St, Bethlehem, PA 18018, USA",40.6183089,-75.3790404,"11 W Church St, Bethlehem, PA 18018, USA",Match,Google
UNIVERSITY OF PUERTO RICO/RIO PIEDRAS CAMPUS,"Av. Dr. Jos N. Gndara, San Juan, 00931, Puerto Rico",18.4028091,-66.0500407,"Av. Dr. Jos N. Gndara, San Juan, 00931, Puerto Rico",Match,Google
BUCKNELL UNIVERSITY,"701 Moore Ave, Lewisburg, PA 17837, USA",40.9546869,-76.8835514,"701 Moore Ave, Lewisburg, PA 17837, USA",Match,Google
FRANKLIN COUNTY LIBRARY SYSTEM,"102 N Main St, Chambersburg, PA 17201, USA",39.9392752,-77.660626,"102 N Main St, Chambersburg, PA 17201, USA",Match,Google
OIL CREEK DISTRICT LIBRARY CENTER,"4653 S Campbell Ave, Springfield, MO 65810, USA",37.1303834,-93.298315,"4653 S Campbell Ave, Springfield, MO 65810, USA",Partial Match,Google
PHILADELPHIA UNIVERSITY,"4201 Henry Ave, Philadelphia, PA 19144, USA",40.0187208,-75.1922881,"4201 Henry Ave, Philadelphia, PA 19144, USA",Match,Google
JEFFERSON MADISON REGIONAL LIBRARY,"201 E Market St, Charlottesville, VA 22902, USA",38.031419,-78.479933,"201 E Market St, Charlottesville, VA 22902, USA",Match,Google
GENEVA COLLEGE,"3200 College Ave, Beaver Falls, PA 15010, USA",40.7713156,-80.3218472,"3200 College Ave, Beaver Falls, PA 15010, USA",Match,Google
MESSIAH COLLEGE,"One College Ave, Mechanicsburg, PA 17055, USA",40.1579079,-76.9882272,"One College Ave, Mechanicsburg, PA 17055, USA",Match,Google
UNIVERSITY OF SOUTHERN MAINE,"96 Falmouth St, Portland, ME 04103, USA",43.6622484,-70.2756936,"96 Falmouth St, Portland, ME 04103, USA",Match,Google
GANNON UNIVERSITY,"109 University Square, Erie, PA 16541, USA",42.1282445,-80.0865882,"109 University Square, Erie, PA 16541, USA",Match,Google
UNIVERSITY OF PITTSBURGH,"4200 Fifth Ave, Pittsburgh, PA 15260, USA",40.4443533,-79.960835,"4200 Fifth Ave, Pittsburgh, PA 15260, USA",Match,Google
JUNIATA COLLEGE,"1700 Moore St, Huntingdon, PA 16652, USA",40.500703,-78.0147549,"1700 Moore St, Huntingdon, PA 16652, USA",Match,Google
LAROCHE COLLEGE,"9000 Babcock Blvd, Pittsburgh, PA 15237, USA",40.5683018,-80.0140875,"9000 Babcock Blvd, Pittsburgh, PA 15237, USA",Match,Google
CARNEGIE MELLON UNIVERSITY,"5000 Forbes Ave, Pittsburgh, PA 15213, USA",40.4428081,-79.9430128,"5000 Forbes Ave, Pittsburgh, PA 15213, USA",Match,Google
POTTSVILLE FREE PUBLIC LIBRARY,"215 W Market St, Pottsville, PA 17901, USA",40.6849417,-76.1969176,"215 W Market St, Pottsville, PA 17901, USA",Match,Google
PORTLAND PUBLIC LIBRARY,"5 Monument Way, Portland, ME 04101, USA",43.6576847,-70.2591467,"5 Monument Way, Portland, ME 04101, USA",Match,Google
PRINCETON PUBLIC LIBRARY,"65 Witherspoon St, Princeton, NJ 08542, USA",40.351615,-74.660262,"65 Witherspoon St, Princeton, NJ 08542, USA",Match,Google
PROVIDENCE COLLEGE,"1 Cunningham Square, Providence, RI 02918, USA",41.8440925,-71.4381653,"1 Cunningham Square, Providence, RI 02918, USA",Match,Google
SAINT FRANCIS UNIVERSITY,"117 Evergreen Drive, Loretto, PA 15940, USA",40.50382,-78.6376191,"117 Evergreen Drive, Loretto, PA 15940, USA",Match,Google
PLYMOUTH STATE UNIVERSITY,"17 High St, Plymouth, NH 03264, USA",43.7595034,-71.6882543,"17 High St, Plymouth, NH 03264, USA",Match,Google
SAINT VINCENT COLLEGE,"300 Fraser Purchase Rd, Latrobe, PA 15650, USA",40.2914205,-79.4003653,"300 Fraser Purchase Rd, Latrobe, PA 15650, USA",Match,Google
TRINITY EPISCOPAL SCHOOL FOR MINISTRY LIBRARY,"99 11th St, Ambridge, PA 15003, USA",40.593042,-80.231824,"99 11th St, Ambridge, PA 15003, USA",Match,Google
POINT PARK UNIVERSITY,"201 Wood St, Pittsburgh, PA 15222, USA",40.4385028,-80.0012691,"201 Wood St, Pittsburgh, PA 15222, USA",Match,Google
WAYNESBURG COLLEGE,"51 W College St, Waynesburg, PA 15370, USA",39.8992112,-80.1866266,"51 W College St, Waynesburg, PA 15370, USA",Match,Google
CHESTER COUNTY LIBRARY & DISTRICT CENTER,"450 Exton Square Pkwy, Exton, PA 19341, USA",40.0321235,-75.620791,"450 Exton Square Pkwy, Exton, PA 19341, USA",Match,Google
WESTINGHOUSE ELEC CORP R&D CENTER LIBRARY,,,,,No Match,Google
MARTIN LIBRARY,"2601 S Garnett Rd, Tulsa, OK 74129, USA",36.12651,-95.8503539,"2601 S Garnett Rd, Tulsa, OK 74129, USA",Match,Google
INDIANA UNIVERSITY OF PENNSYLVANIA,"1011 South Drive, Indiana, PA 15705, USA",40.6140124,-79.1614669,"1011 South Drive, Indiana, PA 15705, USA",Match,Google
JUNEAU PUBLIC LIBRARY,"250 N Fairfield Ave, Juneau, WI 53039, USA",43.4087194,-88.7083037,"250 N Fairfield Ave, Juneau, WI 53039, USA",Match,Google
VANJ HEALTH CARE SYSTEM E ORANGE CAMPUS,"385 Tremont Ave, East Orange, NJ 07018, USA",40.7525462,-74.2361355,"385 Tremont Ave, East Orange, NJ 07018, USA",Partial Match,Google
NEW CASTLE PUBLIC LIBRARY,"705 NW 10th St, Newcastle, OK 73065, USA",35.2564812,-97.608198,"705 NW 10th St, Newcastle, OK 73065, USA",Match,Google
JEFFERSON COUNTY PUBLIC LIBRARY,"10200 W 20th Ave, Lakewood, CO 80215, USA",39.7470415,-105.1132838,"10200 W 20th Ave, Lakewood, CO 80215, USA",Match,Google
MERCYHURST COLLEGE,"501 E 38th St, Erie, PA 16546, USA",42.1050703,-80.0536593,"501 E 38th St, Erie, PA 16546, USA",Match,Google
MONTGOMERY COUNTY LIBRARY,"18330 Montgomery Village Ave, Gaithersburg, MD 20879, USA",39.1582271,-77.2053356,"18330 Montgomery Village Ave, Gaithersburg, MD 20879, USA",Match,Google
ALBUQUERQUE PUBLIC LIBRARY,"501 Copper Ave NW, Albuquerque, NM 87102, USA",35.086062,-106.653216,"501 Copper Ave NW, Albuquerque, NM 87102, USA",Match,Google
WEST CHESTER UNIVERSITY,"700 S High St, West Chester, PA 19383, USA",39.9518653,-75.5999933,"700 S High St, West Chester, PA 19383, USA",Match,Google
CONCORD PUBLIC LIBRARY,"45 Green St, Concord, NH 03301, USA",43.2066825,-71.5403811,"45 Green St, Concord, NH 03301, USA",Match,Google
BROWN UNIVERSITY,"Providence, RI 02912, USA",41.8267718,-71.4025482,"Providence, RI 02912, USA",Match,Google
RHODE ISLAND COLLEGE,"600 Mt Pleasant Ave, Providence, RI 02908, USA",41.842207,-71.461204,"600 Mt Pleasant Ave, Providence, RI 02908, USA",Match,Google
RHODE ISLAND OFFICE OF LIBRARY AND INFORMATION SERVICES,"1 Capitol Hill, Providence, RI 02908, USA",41.8330677,-71.4153726,"1 Capitol Hill, Providence, RI 02908, USA",Match,Google
CLARION UNIVERSITY OF PENNSYLVANIA,"840 Wood St, Clarion, PA 16214, USA",41.2089191,-79.3787136,"840 Wood St, Clarion, PA 16214, USA",Match,Google
REGIS COLLEGE,"235 Wellesley St, Weston, MA 02493, USA",42.3502721,-71.3076196,"235 Wellesley St, Weston, MA 02493, USA",Match,Google
EASTMAN SCHOOL OF MUSIC,"26 Gibbs St, Rochester, NY 14604, USA",43.1578093,-77.6010301,"26 Gibbs St, Rochester, NY 14604, USA",Match,Google
UNIVERSITY OF RHODE ISLAND,"45 Upper College Rd, Kingston, RI 02881, USA",41.4860647,-71.5308537,"45 Upper College Rd, Kingston, RI 02881, USA",Match,Google
PIERCE COUNTY LIBRARY SYSTEM,"3005 112th St E, Tacoma, WA 98446, USA",47.1555376,-122.3869925,"3005 112th St E, Tacoma, WA 98446, USA",Match,Google
UNIVERSITY OF ROCHESTER MEDICAL CENTER,"601 Elmwood Ave, Rochester, NY 14642, USA",43.1230503,-77.6269403,"601 Elmwood Ave, Rochester, NY 14642, USA",Match,Google
READING PUBLIC LIBRARY,"2534, 2534, 64 Middlesex Ave, Reading, MA 01867, United States",42.526105,-71.1102614,"2534, 2534, 64 Middlesex Ave, Reading, MA 01867, United States",Match,Google
CENTRAL RAPPAHANNOCK REGIONAL LIBRARY,"1201 Caroline St, Fredericksburg, VA 22401, USA",38.306006,-77.460772,"1201 Caroline St, Fredericksburg, VA 22401, USA",Match,Google
RYERSON UNIVERSITY,"350 Victoria St, Toronto, ON M5B 2K3, Canada",43.6576585,-79.3788017,"350 Victoria St, Toronto, ON M5B 2K3, Canada",Match,Google
UNIVERSITY OF ROCHESTER,"Rochester, NY, USA",43.1305531,-77.6260033,"Rochester, NY, USA",Match,Google
RUSSELL SAGE FOUNDATION LIBRARY,"112 E 64th St, New York, NY 10065, USA",40.7656174,-73.966974,"112 E 64th St, New York, NY 10065, USA",Match,Google
RAND LIBRARY,"1776 Main St, Santa Monica, CA 90401, USA",34.0096038,-118.4907507,"1776 Main St, Santa Monica, CA 90401, USA",Match,Google
NORTH COUNTRY LIBRARY SYSTEM,"22072 County Rd 190, Watertown, NY 13601, USA",43.9937913,-75.9303752,"22072 County Rd 190, Watertown, NY 13601, USA",Match,Google
ROBERTS WESLEYAN COLLEGE,"2301 Westside Dr, Rochester, NY 14624, USA",43.12574,-77.798531,"2301 Westside Dr, Rochester, NY 14624, USA",Match,Google
ROCHESTER GENERAL HOSPITAL LIBRARY,"Rochester General Hospital, 1425 Portland Ave, Rochester, NY 14621, USA",43.1930205,-77.5867238,"Rochester General Hospital, 1425 Portland Ave, Rochester, NY 14621, USA",Match,Google
ROCHESTER INSTITUTE OF TECHNOLOGY LIBRARY,"90 Lomb Memorial Dr, Rochester, NY 14623, USA",43.0837296,-77.6762978,"90 Lomb Memorial Dr, Rochester, NY 14623, USA",Match,Google
ROGER WILLIAMS UNIVERSITY,"1 Old Ferry Rd, Bristol, RI 02809, USA",41.6510618,-71.2594597,"1 Old Ferry Rd, Bristol, RI 02809, USA",Match,Google
ROXBURY COMMUNITY COLLEGE,"1234 Columbus Ave, Roxbury Crossing, MA 02120, USA",42.329242,-71.095479,"1234 Columbus Ave, Roxbury Crossing, MA 02120, USA",Match,Google
SOUTHWESTERN ASSEMBLIES OF GOD UNIVERSITY,"1200 Sycamore St, Waxahachie, TX 75165, USA",32.4064143,-96.8529436,"1200 Sycamore St, Waxahachie, TX 75165, USA",Match,Google
SAINT ANSELM COLLEGE,"100 St Anselm Dr, Manchester, NH 03102, USA",42.9874723,-71.5072307,"100 St Anselm Dr, Manchester, NH 03102, USA",Match,Google
SOUTHWEST RESEARCH INSTITUTE,"2701 Liberty Pkwy #302, Midwest City, OK 73110, USA",35.4376635,-97.4227571,"2701 Liberty Pkwy #302, Midwest City, OK 73110, USA",Match,Google
SAN ANTONIO PUBLIC LIBRARY,"5110 Walzem Rd, San Antonio, TX 78218, USA",29.5091095,-98.3891762,"5110 Walzem Rd, San Antonio, TX 78218, USA",Match,Google
OUR LADY OF THE LAKE UNIVERSITY,"411 SW 24th St, San Antonio, TX 78207, USA",29.4264099,-98.5433654,"411 SW 24th St, San Antonio, TX 78207, USA",Match,Google
UNIVERSITY OF THE INCARNATE WORD,"4301 Broadway St, San Antonio, TX 78209, USA",29.4675939,-98.4676217,"4301 Broadway St, San Antonio, TX 78209, USA",Match,Google
SIMMONS COLLEGE,"300 Fenway, Boston, MA 02115, USA",42.3393661,-71.0999358,"300 Fenway, Boston, MA 02115, USA",Match,Google
AUGUSTANA COLLEGE LIBRARY,"3435 9 1/2 Ave, Rock Island, IL 61201, USA",41.5023058,-90.5501394,"3435 9 1/2 Ave, Rock Island, IL 61201, USA",Match,Google
SOUTH DAKOTA STATE UNIVERSITY,"Brookings, SD 57007, USA",44.3189457,-96.783968,"Brookings, SD 57007, USA",Match,Google
SUFFOLK COOPERATIVE LIBRARY SYSTEM,"627 Sunrise Hwy, Bellport, NY 11713, USA",40.7889548,-72.960831,"627 Sunrise Hwy, Bellport, NY 11713, USA",Match,Google
CLEMSON UNIVERSITY,"Clemson, SC 29634, USA",34.6760942,-82.8364148,"Clemson, SC 29634, USA",Match,Google
SPRINGFIELD TECHNCIAL COMMUNITY COLLEGE,"1 Armory Square, Springfield, MA 01105, USA",42.1088022,-72.578502,"1 Armory Square, Springfield, MA 01105, USA",Match,Google
FRANCIS MARION UNIVERSITY JAMES A ROGERS LIBRARY,"4822 E Palmetto St, Florence, SC 29506, USA",34.1894979,-79.6528955,"4822 E Palmetto St, Florence, SC 29506, USA",Match,Google
FURMAN UNIVERSITY,"3300 Poinsett Hwy, Greenville, SC 29613, USA",34.9260157,-82.4400724,"3300 Poinsett Hwy, Greenville, SC 29613, USA",Match,Google
INDIANA ST LIBRARY,"315 W Ohio St, Indianapolis, IN 46202, USA",39.7696758,-86.164193,"315 W Ohio St, Indianapolis, IN 46202, USA",Match,Google
SHAKER HEIGHTS PUBLIC LIBRARY,"Shaker Heights, OH 44122, USA",41.476738,-81.535296,"Shaker Heights, OH 44122, USA",Match,Google
SACRED HEART UNIVERSITY LIBRARY,"Fairfield, CT 06825, USA",41.2228658,-73.2428248,"Fairfield, CT 06825, USA",Match,Google
SCHOOL FOR INTERNATIONAL TRAINING,"1 Kipling Rd, Brattleboro, VT 05301, USA",42.8910382,-72.566572,"1 Kipling Rd, Brattleboro, VT 05301, USA",Match,Google
SIUSLAW PUBLIC LIBRARY DISTRICT,"1460 9th St, Florence, OR 97439, USA",43.9744312,-124.1056553,"1460 9th St, Florence, OR 97439, USA",Match,Google
SAINT JOSEPHS UNIVERSITY,"245 Clinton Ave, Brooklyn, NY 11205, USA",40.690509,-73.9677729,"245 Clinton Ave, Brooklyn, NY 11205, USA",Partial Match,Google
WILLIAM JESSUP UNIVERSITY,"2121 University Ave, Rocklin, CA 95765, USA",38.8204128,-121.2924931,"2121 University Ave, Rocklin, CA 95765, USA",Match,Google
SAINT MICHAELS COLLEGE,"86 Place Saint Michel, Colchester, VT 05446, USA",44.4959022,-73.1645995,"86 Place Saint Michel, Colchester, VT 05446, USA",Partial Match,Google
UNIVERSITY OF MASSACHUSETTS DARTMOUTH LIBRARY,"285 Old Westport Rd, Dartmouth, MA 02747, USA",41.6308902,-71.0067053,"285 Old Westport Rd, Dartmouth, MA 02747, USA",Match,Google
GATEWAY COMMUNITY TECHNICAL COLLEGE,"790 Thomas More Pkwy, Edgewood, KY 41017, USA",39.0133577,-84.5580473,"790 Thomas More Pkwy, Edgewood, KY 41017, USA",Match,Google
WELD LIBRARY DISTRICT,"400 Powers St, Erie, CO 80516, USA",40.0380276,-105.0512529,"400 Powers St, Erie, CO 80516, USA",Match,Google
RARITAN VALLEY COMMUNITY COLLEGE,"118 Lamington Rd, Branchburg, NJ 08876, USA",40.6095258,-74.6888942,"118 Lamington Rd, Branchburg, NJ 08876, USA",Match,Google
SOMERSET COUNTY LIBRARY,"1 Vogt Dr, Bridgewater, NJ 08807, USA",40.588351,-74.607572,"1 Vogt Dr, Bridgewater, NJ 08807, USA",Match,Google
SPARTANBURG COUNTY PUBLIC LIBRARY,"151 S Church St Ext, Spartanburg, SC 29306, USA",34.9482922,-81.9304458,"151 S Church St Ext, Spartanburg, SC 29306, USA",Match,Google
SHIPPENSBURG UNIVERSITY,"1871 Old Main Dr, Shippensburg, PA 17257, USA",40.0603939,-77.5234365,"1871 Old Main Dr, Shippensburg, PA 17257, USA",Match,Google
SEO LIBRARY CENTER,"40780 Marietta Rd, Caldwell, OH 43724, USA",39.6862967,-81.4959052,"40780 Marietta Rd, Caldwell, OH 43724, USA",Match,Google
UNIVERSITY OF SCRANTON,"800 Linden St, Scranton, PA 18510, USA",41.4061619,-75.6569241,"800 Linden St, Scranton, PA 18510, USA",Match,Google
STRATFORD LIBRARY ASSOCIATION,"2203 Main St, Stratford, CT 06615, USA",41.1906537,-73.1311803,"2203 Main St, Stratford, CT 06615, USA",Match,Google
SALISBURY UNIVERSITY,"1101 Camden Ave, Salisbury, MD 21801, USA",38.345073,-75.6046968,"1101 Camden Ave, Salisbury, MD 21801, USA",Match,Google
SALEM STATE COLLEGE,"352 Lafayette St, Salem, MA 01970, USA",42.503103,-70.890682,"352 Lafayette St, Salem, MA 01970, USA",Match,Google
SANTA CLARA UNIVERSITY,"500 El Camino Real, Santa Clara, CA 95053, USA",37.3496418,-121.9389875,"500 El Camino Real, Santa Clara, CA 95053, USA",Match,Google
STOW-MUNROE FALLS PUBLIC LIBRARY,"3512 Darrow Rd, Stow, OH 44224, USA",41.1608261,-81.440856,"3512 Darrow Rd, Stow, OH 44224, USA",Match,Google
SETON HALL UNIVERSITY,"400 S Orange Ave, South Orange, NJ 07079, USA",40.7425521,-74.2464941,"400 S Orange Ave, South Orange, NJ 07079, USA",Match,Google
COLLEGE OF SAINT MARY LIBRARY,"7000 Mercy Rd, Omaha, NE 68106, USA",41.2399516,-96.0216555,"7000 Mercy Rd, Omaha, NE 68106, USA",Match,Google
STONEHILL COLLEGE LIBRARY,"320 Washington St, North Easton, MA 02357, USA",42.0590781,-71.0804059,"320 Washington St, North Easton, MA 02357, USA",Match,Google
SAINT PETERS UNIVERSITY LIBRARY,"Jersey City, NJ 07306, USA",40.7275873,-74.0717784,"Jersey City, NJ 07306, USA",Match,Google
UNIVERSITY OF SOUTH CAROLINA,"Columbia, SC 29208, USA",33.996112,-81.0274276,"Columbia, SC 29208, USA",Match,Google
SUL ROSS STATE UNIVERSITY LIBRARY,"400 N Harrison St, Alpine, TX 79830, USA",30.3628501,-103.6523175,"400 N Harrison St, Alpine, TX 79830, USA",Match,Google
SAINT LOUIS PUBLIC LIBRARY,"815 Olive St, St. Louis, MO 63101, USA",38.6292407,-90.1926229,"815 Olive St, St. Louis, MO 63101, USA",Match,Google
ST VLADIMIRS ORTHODOX THEOLOGICAL SEMINARY,"575 Scarsdale Rd, Yonkers, NY 10707, USA",40.9693118,-73.8245546,"575 Scarsdale Rd, Yonkers, NY 10707, USA",Match,Google
SYRACUSE UNIVERSITY,"Syracuse, NY, USA",43.0391534,-76.1351158,"Syracuse, NY, USA",Match,Google
SYRACUSE UNIVERSITY COLLEGE OF LAW LIBRARY,"950 Irving Ave, Syracuse, NY 13244, USA",43.0363242,-76.1387351,"950 Irving Ave, Syracuse, NY 13244, USA",Match,Google
UNIVERSIDAD DE TALCA,"Av Lircay, Talca, Regin del Maule, Chile",-35.4041282,-71.6358479,"Av Lircay, Talca, Regin del Maule, Chile",Match,Google
BELMONT UNIVERSITY,"1900 Belmont Blvd, Nashville, TN 37212, USA",36.1328981,-86.7940699,"1900 Belmont Blvd, Nashville, TN 37212, USA",Match,Google
KING UNIVERSITY,"1350 King College Rd, Bristol, TN 37620, USA",36.5869627,-82.1591181,"1350 King College Rd, Bristol, TN 37620, USA",Match,Google
EAST TENNESSEE STATE UNIVERSITY,"1276 Gilbreath Dr, Johnson City, TN 37614, USA",36.3025374,-82.3701933,"1276 Gilbreath Dr, Johnson City, TN 37614, USA",Match,Google
TEMPLE UNIVERSITY,"1801 N Broad St, Philadelphia, PA 19122, USA",39.9811935,-75.1553512,"1801 N Broad St, Philadelphia, PA 19122, USA",Match,Google
UNIVERSITY OF TEXAS AT TYLER,"2930 Rockbridge Dr, Tyler, TX 75701, USA",32.3134915,-95.257734,"2930 Rockbridge Dr, Tyler, TX 75701, USA",Match,Google
TUFTS UNIVERSITY,"419 Boston Ave, Medford, MA 02155, USA",42.4074843,-71.1190232,"419 Boston Ave, Medford, MA 02155, USA",Match,Google
CHIANG MAI UNIVERSITY LIBRARY,"239 Huaykaew Rd, Tambon Su Thep, Amphoe Mueang Chiang Mai, Chang Wat Chiang Mai 50300, Thailand",18.801229,98.9518453,"239 Huaykaew Rd, Tambon Su Thep, Amphoe Mueang Chiang Mai, Chang Wat Chiang Mai 50300, Thailand",Match,Google
FRONTIER NURSING UNIVERSITY,"195 School St, Hyden, KY 41749, USA",37.165671,-83.379155,"195 School St, Hyden, KY 41749, USA",Match,Google
LETOURNEAU UNIVERSITY,"2100 S Mobberly Ave, Longview, TX 75602, USA",32.465893,-94.7264594,"2100 S Mobberly Ave, Longview, TX 75602, USA",Match,Google
UNIVERSITY OF MEMPHIS,"3720 Alumni Ave, Memphis, TN 38152, USA",35.118741,-89.937141,"3720 Alumni Ave, Memphis, TN 38152, USA",Match,Google
MIDWESTERN STATE UNIVERSITY,"3410 Taft Blvd, Wichita Falls, TX 76308, USA",33.8743726,-98.5210165,"3410 Taft Blvd, Wichita Falls, TX 76308, USA",Match,Google
SOUTHERN ADVENTIST UNIVERSITY,"4881 Taylor Cir, Collegedale, TN 37315, USA",35.0485718,-85.0509053,"4881 Taylor Cir, Collegedale, TN 37315, USA",Match,Google
NASHVILLE PUBLIC LIBRARY,"615 Church St, Nashville, TN 37219, USA",36.162117,-86.781747,"615 Church St, Nashville, TN 37219, USA",Match,Google
UNIVERSITY OF TOLEDO,"2801 Bancroft Street, Toledo, OH 43606, USA",41.6580307,-83.6140701,"2801 Bancroft Street, Toledo, OH 43606, USA",Match,Google
UNIVERSITY OF TEXAS SCHOOL OF PUBLIC HEALTH LIBRARY,"1200 Pressler Street 1st Floor, E109, Houston, TX 77030, United States",29.704888,-95.39827,"1200 Pressler Street 1st Floor, E109, Houston, TX 77030, United States",Match,Google
TOWSON UNIVERSITY,"8000 York Rd, Towson, MD 21252, USA",39.3925121,-76.6126392,"8000 York Rd, Towson, MD 21252, USA",Match,Google
SOUTHWESTERN BAPTIST THEOLOGICAL SEMINARY,"2001 W Seminary Dr, Fort Worth, TX 76115, USA",32.680075,-97.3478657,"2001 W Seminary Dr, Fort Worth, TX 76115, USA",Match,Google
TENNESSEE TECH UNIVERSITY,"1 William L Jones Dr, Cookeville, TN 38505, USA",36.175903,-85.5070223,"1 William L Jones Dr, Cookeville, TN 38505, USA",Match,Google
FT BENNING GENERAL LIBRARY SAYERS MEMORIAL LIBRARY,"2784 Sightseeing Rd, Fort Benning, GA 31905, USA",32.3501799,-84.9754113,"2784 Sightseeing Rd, Fort Benning, GA 31905, USA",Match,Google
UNIVERSITY OF TENNESSEE AT CHATTANOOGA,"615 McCallie Ave, Chattanooga, TN 37403, USA",35.0457554,-85.2955112,"615 McCallie Ave, Chattanooga, TN 37403, USA",Match,Google
TEXAS WESLEYAN UNIVERSITY E & J L WEST LIBRARY,"1201 Wesleyan St, Fort Worth, TX 76105, USA",32.732995,-97.279535,"1201 Wesleyan St, Fort Worth, TX 76105, USA",Match,Google
NORFOLK PUBLIC LIBRARY,"1368 De Bree Ave, Norfolk, VA 23517, USA",36.864672,-76.291382,"1368 De Bree Ave, Norfolk, VA 23517, USA",Match,Google
WEST TEXAS A&M UNIVERSITY,"2501 4th Ave, Canyon, TX 79016, USA",34.9815101,-101.9160676,"2501 4th Ave, Canyon, TX 79016, USA",Match,Google
TEXAS A&M UNIVERSITY,"400 Bizzell St, College Station, TX 77843, USA",30.618531,-96.336499,"400 Bizzell St, College Station, TX 77843, USA",Match,Google
ABILENE PUBLIC LIBRARY,"209 NW 4th St, Abilene, KS 67410, USA",38.9185035,-97.2153474,"209 NW 4th St, Abilene, KS 67410, USA",Match,Google
TEXAS A&M UNIVERSITY AT CORPUS CHRISTI,"6300 Ocean Dr, Corpus Christi, TX 78412, USA",27.7127448,-97.3241433,"6300 Ocean Dr, Corpus Christi, TX 78412, USA",Match,Google
FRIONA PUBLIC LIBRARY,"109 W 7th St, Friona, TX 79035, USA",34.6371792,-102.7193718,"109 W 7th St, Friona, TX 79035, USA",Match,Google
TEXAS STATE UNIVERSITY-SAN MARCOS,"601 University Dr, San Marcos, TX 78666, USA",29.888411,-97.938351,"601 University Dr, San Marcos, TX 78666, USA",Match,Google
UNIVERSITY OF TEXAS AT SAN ANTONIO,"1 UTSA Circle, San Antonio, TX 78249, USA",29.5829699,-98.61972,"1 UTSA Circle, San Antonio, TX 78249, USA",Match,Google
MIDDLE TENNESSEE STATE,"1301 E Main St, Murfreesboro, TN 37132, USA",35.8486105,-86.3648813,"1301 E Main St, Murfreesboro, TN 37132, USA",Match,Google
HOUSTON PUBLIC LIBRARY,"7405 Stella Link Rd, Houston, TX 77025, USA",29.6981229,-95.4397174,"7405 Stella Link Rd, Houston, TX 77025, USA",Match,Google
UNIVERSITY OF TEXAS AT EL PASO,"500 W University Ave, El Paso, TX 79968, USA",31.7709368,-106.5046405,"500 W University Ave, El Paso, TX 79968, USA",Match,Google
SOUTHWESTERN UNIVERSITY,"1001 E University Ave, Georgetown, TX 78626, USA",30.6349251,-97.6651268,"1001 E University Ave, Georgetown, TX 78626, USA",Match,Google
TAYLOR MEMORIAL PUBLIC LIBRARY,"2015 3rd St, Cuyahoga Falls, OH 44221, USA",41.1347382,-81.4854053,"2015 3rd St, Cuyahoga Falls, OH 44221, USA",Match,Google
UNITY COLLEGE,"90 Quaker Hill Rd, Unity, ME 04988, USA",44.6039934,-69.332298,"90 Quaker Hill Rd, Unity, ME 04988, USA",Match,Google
UNIVERSITY OF ALASKA/ANCHORAGE,"3211 Providence Dr, Anchorage, AK 99508, USA",61.1910421,-149.8195598,"3211 Providence Dr, Anchorage, AK 99508, USA",Match,Google
UNIVERSITY OF MARYLAND,"College Park, MD 20742, USA",38.9869183,-76.9425543,"College Park, MD 20742, USA",Match,Google
UNIVERSITY OF CONNECTICUT,"Storrs, CT 06269, USA",41.8077414,-72.2539805,"Storrs, CT 06269, USA",Match,Google
DEPARTMENT OF VET AFFAIRS CENTRAL OFFICE LIBRARY,"6010 W Amarillo Blvd, Amarillo, TX 79106, USA",35.2041908,-101.9066289,"6010 W Amarillo Blvd, Amarillo, TX 79106, USA",Match,Google
VETERANS ADMINISTRATION MEDICAL CENTER BEDFORD,"Building 61 Springs Rd, Bedford, MA 01730, USA",42.5048759,-71.2734301,"Building 61 Springs Rd, Bedford, MA 01730, USA",Match,Google
UNIVERSITY OF MASSACHUSETTS LOWELL,"220 Pawtucket St, Lowell, MA 01854, USA",42.6552587,-71.3247164,"220 Pawtucket St, Lowell, MA 01854, USA",Match,Google
NICHOLS COLLEGE CONANT LIBRARY,"127 Center Rd, Dudley, MA 01571, USA",42.0447001,-71.9312631,"127 Center Rd, Dudley, MA 01571, USA",Match,Google
UNIVERSITY OF MARYLAND LIBRARIES,"7649 Library Ln, College Park, MD 20742, USA",38.9859704,-76.9450882,"7649 Library Ln, College Park, MD 20742, USA",Match,Google
UNIVERSITY OF MARYLAND/EASTERN SHORE,"11868 College Backbone Rd, Princess Anne, MD 21853, USA",38.2102166,-75.6848002,"11868 College Backbone Rd, Princess Anne, MD 21853, USA",Match,Google
UNIVERSITY OF MISSOURI/KANSAS CITY,"5100 Rockhill Rd, Kansas City, MO 64110, USA",39.0335539,-94.5760259,"5100 Rockhill Rd, Kansas City, MO 64110, USA",Match,Google
UNIVERSITY OF MISSOURI/ROLLA,"4000 Enterprise Dr, Rolla, MO 65409, USA",37.9820056,-91.7223863,"4000 Enterprise Dr, Rolla, MO 65409, USA",Match,Google
UNIVERSITY OF MISSOURI/ST LOUIS,"1 University Blvd, St. Louis, MO 63121, USA",38.7092401,-90.30828,"1 University Blvd, St. Louis, MO 63121, USA",Match,Google
UNIVERSITY OF NEW BRUNSWICK,"3 Bailey Dr, Fredericton, NB E3B 5A3, Canada",45.9453492,-66.6423814,"3 Bailey Dr, Fredericton, NB E3B 5A3, Canada",Match,Google
TIMBERLAND REGIONAL LIBRARY,"415 Tumwater Blvd SW, Tumwater, WA 98501, USA",46.979804,-122.910327,"415 Tumwater Blvd SW, Tumwater, WA 98501, USA",Match,Google
UNIVERSITY OF THE PACIFIC,"3601 Pacific Ave, Stockton, CA 95211, USA",37.9808152,-121.3120225,"3601 Pacific Ave, Stockton, CA 95211, USA",Match,Google
PENNSYLVANIA STATE UNIVERSITY,"Old Main, State College, PA 16801, USA",40.7982133,-77.8599084,"Old Main, State College, PA 16801, USA",Match,Google
UNIVERSITY OF PUGET SOUND,"1500 N Warner St, Tacoma, WA 98416, USA",47.261764,-122.481455,"1500 N Warner St, Tacoma, WA 98416, USA",Match,Google
US ARMY NSRDEC,"General Greene Avenue, Natick, MA 01760, United States",42.288372,-71.362548,"General Greene Avenue, Natick, MA 01760, United States",Match,Google
SOUTHERN UTAH UNIVERSITY,"351 W University Blvd, Cedar City, UT 84720, USA",37.676444,-113.071332,"351 W University Blvd, Cedar City, UT 84720, USA",Match,Google
SALT LAKE COUNTY LIBRARY SERVICE,"2880 W 3650 S, West Valley City, UT 84119, USA",40.693378,-111.961504,"2880 W 3650 S, West Valley City, UT 84119, USA",Match,Google
WEBER STATE UNIVERSITY,"3848 Harrison Blvd, Ogden, UT 84408, USA",41.1924454,-111.9418739,"3848 Harrison Blvd, Ogden, UT 84408, USA",Match,Google
UTAH VALLEY UNIVERSITY,"800 W University Pkwy, Orem, UT 84058, USA",40.2788306,-111.7151968,"800 W University Pkwy, Orem, UT 84058, USA",Match,Google
VAUGHN COLLEGE OF AERONAUTICS & TECHNOLOGY,"8601 23rd Ave, East Elmhurst, NY 11369, USA",40.768034,-73.881921,"8601 23rd Ave, East Elmhurst, NY 11369, USA",Match,Google
FASHION INSTITUTE OF TECHNOLOGY,"227 W 27th St, New York, NY 10001, USA",40.7471364,-73.9948478,"227 W 27th St, New York, NY 10001, USA",Match,Google
UNIVERSITY OF CHARLESTON LIBRARY,"Charleston, WV 25314, USA",38.333522,-81.616641,"Charleston, WV 25314, USA",Match,Google
TAPPAN ZEE HIGH SCHOOL LIBRARY,"541 Western Hwy S, Blauvelt, NY 10913, USA",41.0598027,-73.9571571,"541 Western Hwy S, Blauvelt, NY 10913, USA",Match,Google
SHENANDOAH UNIVERSITY,"1460 University Dr, Winchester, VA 22601, USA",39.1660159,-78.1583388,"1460 University Dr, Winchester, VA 22601, USA",Match,Google
BOCES OSWEGO COUNTY,"179 County Rte 64, Mexico, NY 13114, USA",43.4576871,-76.2593905,"179 County Rte 64, Mexico, NY 13114, USA",Match,Google
REGENT UNIVERSITY,"1000 Regent University Dr, Virginia Beach, VA 23464, USA",36.800573,-76.1929926,"1000 Regent University Dr, Virginia Beach, VA 23464, USA",Match,Google
VERMONT COLLEGE OF FINE ARTS LIBRARY,"62 Ridge St #2, Montpelier, VT 05602, USA",44.25491,-72.568216,"62 Ridge St #2, Montpelier, VT 05602, USA",Match,Google
CASTLETON STATE COLLEGE,"62 Alumni Dr, Castleton, VT 05735, USA",43.6077824,-73.1802563,"62 Alumni Dr, Castleton, VT 05735, USA",Match,Google
POUGHKEEPSIE PUBLIC LIBRARY DISTRICT,"93 Market St, Poughkeepsie, NY 12601, USA",41.70054,-73.930194,"93 Market St, Poughkeepsie, NY 12601, USA",Match,Google
BROOKLYN COLLEGE,"2900 Bedford Ave, Brooklyn, NY 11210, USA",40.6312323,-73.9523916,"2900 Bedford Ave, Brooklyn, NY 11210, USA",Match,Google
COLUMBIA-GREENE COMMUNITY COLLEGE,"4400 NY-23, Hudson, NY 12534, USA",42.217669,-73.817645,"4400 NY-23, Hudson, NY 12534, USA",Match,Google
DOMINICAN COLLEGE,"470 Western Hwy S, Orangeburg, NY 10962, USA",41.0471959,-73.9505947,"470 Western Hwy S, Orangeburg, NY 10962, USA",Match,Google
DUTCHESS COMMUNITY COLLEGE,"53 Pendell Rd, Poughkeepsie, NY 12601, USA",41.7222178,-73.9067896,"53 Pendell Rd, Poughkeepsie, NY 12601, USA",Match,Google
NYACK COLLEGE MANHATTAN CENTER,"2 Washington St, New York, NY 10004, USA",40.7056392,-74.0156969,"2 Washington St, New York, NY 10004, USA",Match,Google
VALLEY FORGE CHRISTIAN CENTER,"1485 Valley Forge Rd, Phoenixville, PA 19460, USA",40.1091125,-75.4766644,"1485 Valley Forge Rd, Phoenixville, PA 19460, USA",Match,Google
LENMOYNE COLLEGE,"1419 Salt Springs Rd, Syracuse, NY 13214, USA",43.0497018,-76.0855042,"1419 Salt Springs Rd, Syracuse, NY 13214, USA",Partial Match,Google
MID-HUDSON LIBRARY SYSTEM,"103 Market St, Poughkeepsie, NY 12601, USA",41.7004238,-73.9305281,"103 Market St, Poughkeepsie, NY 12601, USA",Match,Google
NYACK COLLEGE,"2 Washington St, New York, NY 10004, USA",40.7056392,-74.0156969,"2 Washington St, New York, NY 10004, USA",Match,Google
ORANGE COUNTY COMMUNITY COLLEGE,"115 South St, Middletown, NY 10940, USA",41.4386164,-74.4261043,"115 South St, Middletown, NY 10940, USA",Match,Google
RAMAPO CATSKILL LIBRARY SYSTEM,"619 NY-17M, Middletown, NY 10940, USA",41.4743741,-74.4159779,"619 NY-17M, Middletown, NY 10940, USA",Match,Google
SUNY SULLIVAN,"112 College Rd, Loch Sheldrake, NY 12759, USA",41.763897,-74.668862,"112 College Rd, Loch Sheldrake, NY 12759, USA",Match,Google
ULSTER COUNTY COMMUNITY COLLEGE,"491 Cottekill Rd, Stone Ridge, NY 12484, USA",41.851499,-74.128999,"491 Cottekill Rd, Stone Ridge, NY 12484, USA",Match,Google
BUFFALO & ERIE COUNTY PUBLIC LIBRARY,"1324 Jefferson Ave, Buffalo, NY 14208, USA",42.9113973,-78.8544273,"1324 Jefferson Ave, Buffalo, NY 14208, USA",Match,Google
THE LIBRARY OF VIRGINIA,"800 E Broad St, Richmond, VA 23219, USA",37.5412607,-77.4341621,"800 E Broad St, Richmond, VA 23219, USA",Match,Google
STEVENSON UNIVERSITY,"1525 Greenspring Valley Rd, Stevenson, MD 21153, USA",39.4216638,-76.7012976,"1525 Greenspring Valley Rd, Stevenson, MD 21153, USA",Match,Google
ADELPHI UNIVERSITY,"1 South Ave, Garden City, NY 11530, USA",40.7202125,-73.6522652,"1 South Ave, Garden City, NY 11530, USA",Match,Google
WOODSTOCK PUBLIC LIBRARY,"414 W Judd St, Woodstock, IL 60098, USA",42.316009,-88.452257,"414 W Judd St, Woodstock, IL 60098, USA",Match,Google
LONG ISLAND JEWISH HILLSIDE MEDICAL CENTER HEALTH SCIENCE LIBRARY,"270-05 76th Ave, Queens, NY 11040, USA",40.7544453,-73.7077153,"270-05 76th Ave, Queens, NY 11040, USA",Match,Google
SUNY ADIRONDACK LIBRARY,"640 Bay Rd, Queensbury, NY 12804, USA",43.3531166,-73.6538584,"640 Bay Rd, Queensbury, NY 12804, USA",Match,Google
COLLEGE OF ST. ROSE,"432 Western Ave, Albany, NY 12203, USA",42.6640994,-73.7856653,"432 Western Ave, Albany, NY 12203, USA",Match,Google
GE GLOBAL RESEARCH,"1 Research Cir, Niskayuna, NY 12309, USA",42.8271556,-73.8780481,"1 Research Cir, Niskayuna, NY 12309, USA",Match,Google
CANISIUS COLLEGE,"2001 Main St, Buffalo, NY 14208, USA",42.9248338,-78.8514848,"2001 Main St, Buffalo, NY 14208, USA",Match,Google
SIENA COLLEGE,"515 Loudon Rd, Loudonville, NY 12211, USA",42.716635,-73.7523365,"515 Loudon Rd, Loudonville, NY 12211, USA",Match,Google
LIBERTY UNIVERSITY,"1971 University Blvd, Lynchburg, VA 24515, USA",37.3529323,-79.1769282,"1971 University Blvd, Lynchburg, VA 24515, USA",Match,Google
LONGWOOD COLLEGE,"201 High St, Farmville, VA 23909, USA",37.2971798,-78.3961973,"201 High St, Farmville, VA 23909, USA",Match,Google
LYNDON STATE COLLEGE,"1001 College Rd, Lyndonville, VT 05851, USA",44.5355567,-72.025198,"1001 College Rd, Lyndonville, VT 05851, USA",Match,Google
LYNCHBURG COLLEGE,"1501 Lakeside Dr, Lynchburg, VA 24501, USA",37.4006,-79.183153,"1501 Lakeside Dr, Lynchburg, VA 24501, USA",Match,Google
JAMES MADISON UNIVERSITY,"800 S Main St, Harrisonburg, VA 22807, USA",38.435092,-78.8697548,"800 S Main St, Harrisonburg, VA 22807, USA",Match,Google
MOHAWK VALLEY LIBRARY SYSTEM,"858 Duanesburg Rd, Schenectady, NY 12306, USA",42.7834321,-74.0226162,"858 Duanesburg Rd, Schenectady, NY 12306, USA",Match,Google
MARY WASHINGTON COLLEGE,"1301 College Ave, Fredericksburg, VA 22401, USA",38.3013039,-77.47447,"1301 College Ave, Fredericksburg, VA 22401, USA",Match,Google
JEFFERSON COMMUN COLLEGE LIBRARY,"1220 Coffeen St, Watertown, NY 13601, USA",43.99184,-75.9345752,"1220 Coffeen St, Watertown, NY 13601, USA",Partial Match,Google
PAUL SMITHS COLLEGE LIBRARY,"NY-86, Paul Smiths, NY 12970, USA",44.437828,-74.2517279,"NY-86, Paul Smiths, NY 12970, USA",Partial Match,Google
FLOWER MEMORIAL LIBRARY,"229 Washington St, Watertown, NY 13601, USA",43.9729645,-75.9103926,"229 Washington St, Watertown, NY 13601, USA",Match,Google
WEAD LIBRARY,"64 Elm St, Malone, NY 12953, USA",44.8515351,-74.289374,"64 Elm St, Malone, NY 12953, USA",Match,Google
PLATTSBURGH PUBLIC LIBRARY,"19 Oak St, Plattsburgh, NY 12901, USA",44.6972109,-73.45564,"19 Oak St, Plattsburgh, NY 12901, USA",Match,Google
SAMARITAN MEDICAL CENTER,"830 Washington St, Watertown, NY 13601, USA",43.9651872,-75.9151126,"830 Washington St, Watertown, NY 13601, USA",Match,Google
SARANAC LAKE FREE LIBRARY,"109 Main St, Saranac Lake, NY 12983, USA",44.3274717,-74.1303542,"109 Main St, Saranac Lake, NY 12983, USA",Match,Google
ONONDAGA COMMUNITY COLLEGE,"4585 W Seneca Turnpike, Syracuse, NY 13215, USA",43.0033537,-76.1967384,"4585 W Seneca Turnpike, Syracuse, NY 13215, USA",Match,Google
OLD DOMINION UNIVERSITY,"5115 Hampton Blvd, Norfolk, VA 23529, USA",36.8856104,-76.3067777,"5115 Hampton Blvd, Norfolk, VA 23529, USA",Match,Google
VIRGINIA TECH,"Blacksburg, VA 24061, USA",37.2283843,-80.4234167,"Blacksburg, VA 24061, USA",Match,Google
MONROE COMMUNITY COLLEGE LIBRARY,"5701, 1000, E Henrietta Rd, Rochester, NY 14623, United States",43.1009833,-77.6101465,"5701, 1000, E Henrietta Rd, Rochester, NY 14623, United States",Match,Google
RADFORD UNIVERSITY LIBRARY,"801 E Main St, Radford, VA 24142, USA",37.139888,-80.5510405,"801 E Main St, Radford, VA 24142, USA",Match,Google
UNIVERSITY OF RICHMOND,"28 Westhampton Way, Richmond, VA 23173, USA",37.5758681,-77.5409744,"28 Westhampton Way, Richmond, VA 23173, USA",Match,Google
COLLEGE OF STATEN ISLAND,"2800 Victory Blvd, Staten Island, NY 10314, USA",40.6016362,-74.1496984,"2800 Victory Blvd, Staten Island, NY 10314, USA",Match,Google
VERMONT DEPT OF LIBRARIES PROCUREMENT CENTER,"Vermont, USA",44.5588028,-72.5778415,"Vermont, USA",Partial Match,Google
VERMONT TECHNICAL COLLEGE,"124 Admin Drive, Randolph Center, VT 05061, United States",43.938717,-72.604721,"124 Admin Drive, Randolph Center, VT 05061, United States",Match,Google
UNIVERSITY OF VERMONT,"Burlington, VT 05405, USA",44.4778528,-73.1964637,"Burlington, VT 05405, USA",Match,Google
UPPER HUDSON LIBRARY SYSTEM,"28 Essex St, Albany, NY 12206, USA",42.6774931,-73.7789425,"28 Essex St, Albany, NY 12206, USA",Match,Google
CUNY BARUCH COLLEGE,"55 Lexington Ave, New York, NY 10010, USA",40.7404873,-73.9831567,"55 Lexington Ave, New York, NY 10010, USA",Match,Google
COLGATE UNIVERSITY,"13 Oak Dr, Hamilton, NY 13346, USA",42.8166152,-75.5401764,"13 Oak Dr, Hamilton, NY 13346, USA",Match,Google
SUNY HEALTH SCIENCE CENTER AT BROOKLYN,"450 Clarkson Ave # 30, Brooklyn, NY 11203, USA",40.6552458,-73.945734,"450 Clarkson Ave # 30, Brooklyn, NY 11203, USA",Match,Google
DAEMEN COLLEGE,"4380 Main St, Amherst, NY 14226, USA",42.9648902,-78.7884384,"4380 Main St, Amherst, NY 14226, USA",Match,Google
JOHN JAY COLLEGE,"524 W 59th St, New York, NY 10019, USA",40.7704272,-73.9884684,"524 W 59th St, New York, NY 10019, USA",Match,Google
NEW YORK ACADEMY OF MEDICINE LIBRARY,"1216 5th Ave, New York, NY 10029, USA",40.7921,-73.9523826,"1216 5th Ave, New York, NY 10029, USA",Match,Google
ICAHN SCHOOL OF MEDICINE AT MOUNT SINAI,"1 Gustave L. Levy Pl, New York, NY 10029, USA",40.7898695,-73.9533616,"1 Gustave L. Levy Pl, New York, NY 10029, USA",Match,Google
MEMORIAL SLOAN-KETTERING CANCER CENTER MEDICAL LIBRARY,"1275 York Ave, New York, NY 10065, USA",40.764101,-73.9559837,"1275 York Ave, New York, NY 10065, USA",Match,Google
NIAGARA UNIVERSITY LIBRARY,"4 Varsity Drive Niagara University, Lewiston, NY 14109, United States",43.1362229,-79.0377677,"4 Varsity Drive Niagara University, Lewiston, NY 14109, United States",Match,Google
NEW YORK MEDICAL COLLEGE LIBRARY,"15 Dana Rd, Valhalla, NY 10595, USA",41.08388,-73.8109519,"15 Dana Rd, Valhalla, NY 10595, USA",Match,Google
ROCKLAND COMMUNITY COLLEGE LIBRARY,"145 College Rd, Suffern, NY 10901, USA",41.133878,-74.086432,"145 College Rd, Suffern, NY 10901, USA",Match,Google
SARAH LAWRENCE COLLEGE,"1 Mead Way, Bronxville, NY 10708, USA",40.9360524,-73.8433974,"1 Mead Way, Bronxville, NY 10708, USA",Match,Google
NEW YORK UNIVERSITY LANGONE MEDICAL CENTER,"333 E 38th St, New York, NY 10016, USA",40.7467775,-73.9722265,"333 E 38th St, New York, NY 10016, USA",Match,Google
UTICA COLLEGE,"1600 Burrstone Rd, Utica, NY 13502, USA",43.0936618,-75.2714604,"1600 Burrstone Rd, Utica, NY 13502, USA",Match,Google
WESTCHESTER LIBRARY SYSTEM,"570 Taxter Rd #400, Elmsford, NY 10523, USA",41.057843,-73.829009,"570 Taxter Rd #400, Elmsford, NY 10523, USA",Match,Google
NASSAU COMMUNITY COLLEGE LIBRARY,"1 Education Dr, Garden City, NY 11530, USA",40.7303646,-73.5916936,"1 Education Dr, Garden City, NY 11530, USA",Match,Google
CUNY BRONX COMMUNITY COLLEGE LIBRARY,"2155 University Ave # 107, Bronx, NY 10453, USA",40.8590255,-73.9126843,"2155 University Ave # 107, Bronx, NY 10453, USA",Match,Google
WILLIAM & MARY LIBRARIES,"400 Landrum Dr, Williamsburg, VA 23185, USA",37.2699169,-76.7160653,"400 Landrum Dr, Williamsburg, VA 23185, USA",Match,Google
ELMIRA COLLEGE,"1 Park Pl, Elmira, NY 14901, USA",42.0967817,-76.8153705,"1 Park Pl, Elmira, NY 14901, USA",Match,Google
SUNY COLLEGE OF ENVIRONMENTAL SCIENCE AND FORESTRY,"1 Forestry Dr, Syracuse, NY 13210, USA",43.0344612,-76.1369148,"1 Forestry Dr, Syracuse, NY 13210, USA",Match,Google
NEW YORK BOTANICAL GARDEN LIBRARY,"2900 Southern Blvd, Bronx, NY 10458, USA",40.8666904,-73.8786597,"2900 Southern Blvd, Bronx, NY 10458, USA",Match,Google
HERKIMER COUNTY COMMUNITY COLLEGE LIBRARY,"100 Reservoir Rd, Herkimer, NY 13350, USA",43.0322822,-75.0062459,"100 Reservoir Rd, Herkimer, NY 13350, USA",Match,Google
IONA COLLEGE,"715 North Ave, New Rochelle, NY 10801, USA",40.9271278,-73.7864435,"715 North Ave, New Rochelle, NY 10801, USA",Match,Google
ALBANY MEDICAL COLLEGE,"43 New Scotland Ave, Albany, NY 12208, USA",42.6532088,-73.7776623,"43 New Scotland Ave, Albany, NY 12208, USA",Match,Google
THE GENERAL THEOLOGICAL SEMINARY,"440 W 21st St, New York, NY 10011, USA",40.7458439,-74.0039926,"440 W 21st St, New York, NY 10011, USA",Match,Google
NEW YORK STATE DEPARTMENT OF HEALTH,"90 Church St, New York, NY 10007, USA",40.712519,-74.0102032,"90 Church St, New York, NY 10007, USA",Match,Google
HOUGHTON COLLEGE,"1 Willard Ave, Houghton, NY 14744, USA",42.4268184,-78.1558062,"1 Willard Ave, Houghton, NY 14744, USA",Match,Google
SUNY STATE COLLEGE OF OPTOMETRY,"33 W 42nd St, New York, NY 10036, USA",40.7544216,-73.9822267,"33 W 42nd St, New York, NY 10036, USA",Match,Google
TOMPKINS CORTLAND COMMUNITY COLLEGE,"170 North St, Dryden, NY 13053, USA",42.502126,-76.287671,"170 North St, Dryden, NY 13053, USA",Match,Google
SUNY AGR & TECH COLLEGE AT COBLESKILL,"106 Suffolk Cir, Cobleskill, NY 12043, USA",42.671702,-74.498279,"106 Suffolk Cir, Cobleskill, NY 12043, USA",Match,Google
WESTERN NEW ENGLAND UNIVERSITY LAW SCHOOL,"1215 Wilbraham Rd, Springfield, MA 01119, USA",42.116187,-72.5213609,"1215 Wilbraham Rd, Springfield, MA 01119, USA",Match,Google
WILMINGTON COLLEGE,"2499, 1870 Quaker Way, Wilmington, OH 45177, United States",39.4447895,-83.8181626,"2499, 1870 Quaker Way, Wilmington, OH 45177, United States",Match,Google
WESTERN NEW ENGLAND COLLEGE,"1215 Wilbraham Rd, Springfield, MA 01119, USA",42.1149784,-72.5186855,"1215 Wilbraham Rd, Springfield, MA 01119, USA",Match,Google
WORCESTER POLYTECHNIC INSTITUTE,"100 Institute Rd, Worcester, MA 01609, USA",42.2745754,-71.8062724,"100 Institute Rd, Worcester, MA 01609, USA",Match,Google
MANHATTANVILLE COLLEGE LIBRARY,"Purchase, NY 10577, USA",41.0490455,-73.7031916,"Purchase, NY 10577, USA",Match,Google
FORDHAM UNIVERSITY,"Bronx, NY 10458, USA",40.8620404,-73.8856987,"Bronx, NY 10458, USA",Match,Google
VYG,"Rainbow Theatre, 232 Seven Sisters Rd, London N4 3NP, UK",51.5629189,-0.107919,"Rainbow Theatre, 232 Seven Sisters Rd, London N4 3NP, UK",Match,Google
CUNY LEHMAN COLLEGE LIBRARY,"Paul Ave, Bronx, NY 10468, USA",40.8719424,-73.893866,"Paul Ave, Bronx, NY 10468, USA",Match,Google
US MERCHANT MARINE ACADEMY,"300 Steamboat Rd, Kings Point, NY 11024, USA",40.8129628,-73.7625503,"300 Steamboat Rd, Kings Point, NY 11024, USA",Match,Google
US AIR FORCE RESOURCE LAB/AFRL,United States,37.09024,-95.712891,United States,Partial Match,Google
ST. BONAVENTURE UNIVERSITY,"3261 W State St, St Bonaventure, NY 14778, USA",42.0784113,-78.4828822,"3261 W State St, St Bonaventure, NY 14778, USA",Match,Google
CLARKSON UNIVERSITY,"8 Clarkson Ave, Potsdam, NY 13699, USA",44.6637611,-74.998544,"8 Clarkson Ave, Potsdam, NY 13699, USA",Match,Google
STONY BROOK UNIVERSITY,"100 Nicolls Rd, Stony Brook, NY 11794, USA",40.9123761,-73.1233889,"100 Nicolls Rd, Stony Brook, NY 11794, USA",Match,Google
CLINTON ESSEX FRANKLIN LIBRARY SYSTEM,"33 Oak St, Plattsburgh, NY 12901, USA",44.6975056,-73.4558393,"33 Oak St, Plattsburgh, NY 12901, USA",Match,Google
MERCY COLLEGE LIBRARY,"555 Broadway, Dobbs Ferry, NY 10522, USA",41.021147,-73.874663,"555 Broadway, Dobbs Ferry, NY 10522, USA",Match,Google
SAINT FRANCIS COLLEGE LIBRARY,"222 Clinton Ave, Brooklyn, NY 11205, USA",40.6913191,-73.9689141,"222 Clinton Ave, Brooklyn, NY 11205, USA",Match,Google
SAINT JOSEPHS COLLEGE N.Y.,"245 Clinton Ave, Brooklyn, NY 11205, USA",40.690509,-73.9677729,"245 Clinton Ave, Brooklyn, NY 11205, USA",Match,Google
HARTWICK COLLEGE,"1 Hartwick Dr, Oneonta, NY 13820, USA",42.4573534,-75.0728868,"1 Hartwick Dr, Oneonta, NY 13820, USA",Match,Google
ST. JOHN FISHER COLLEGE,"3690 East Ave, Rochester, NY 14618, USA",43.115372,-77.511511,"3690 East Ave, Rochester, NY 14618, USA",Match,Google
PACE UNIVERSITY LAW LIBRARY,"78 N Broadway, White Plains, NY 10603, USA",41.0393653,-73.7660727,"78 N Broadway, White Plains, NY 10603, USA",Match,Google
THE COLLEGE OF NEW ROCHELLE,"29 Castle Pl, New Rochelle, NY 10805, USA",40.9016643,-73.7811969,"29 Castle Pl, New Rochelle, NY 10805, USA",Match,Google
PACE UNIVERSITY,"1 Pace Plaza, New York, NY 10038, USA",40.7111197,-74.0048567,"1 Pace Plaza, New York, NY 10038, USA",Match,Google
PRATT INSTITUTE,"200 Willoughby Ave, Brooklyn, NY 11205, USA",40.6912807,-73.962537,"200 Willoughby Ave, Brooklyn, NY 11205, USA",Match,Google
SKIDMORE COLLEGE,"815 N Broadway, Saratoga Springs, NY 12866, USA",43.099227,-73.782673,"815 N Broadway, Saratoga Springs, NY 12866, USA",Match,Google
ST. JOSEPHS COLLEGE,"245 Clinton Ave, Brooklyn, NY 11205, USA",40.690509,-73.9677729,"245 Clinton Ave, Brooklyn, NY 11205, USA",Partial Match,Google
PACE UNIVERSITY LIBRARY - PLEASANTVILLE,"861 Bedford Rd, Pleasantville, NY 10570, USA",41.1274659,-73.8073974,"861 Bedford Rd, Pleasantville, NY 10570, USA",Match,Google
COLLEGE OF MOUNT SAINT VINCENT,"6301 Riverdale Ave, Bronx, NY 10471, USA",40.9124186,-73.9030113,"6301 Riverdale Ave, Bronx, NY 10471, USA",Match,Google
MONTEFIORE HOSPITAL & MEDICAL CENTER,"3415 Bainbridge Ave, Bronx, NY 10467, USA",40.880273,-73.8791698,"3415 Bainbridge Ave, Bronx, NY 10467, USA",Match,Google
STAFFORD CREEK CORRRECTIONS CENTER,"191 Constantine Way, Aberdeen, WA 98520, USA",46.924763,-123.9209137,"191 Constantine Way, Aberdeen, WA 98520, USA",Match,Google
WASHINGTON-CENTERVILLE PUBLIC LIBRARY,"6060 Far Hills Ave, Centerville, OH 45459, USA",39.6564828,-84.1565122,"6060 Far Hills Ave, Centerville, OH 45459, USA",Match,Google
TETON COUNTY LIBRARY,"125 Virginian Ln, Jackson, WY 83001, USA",43.471592,-110.779888,"125 Virginian Ln, Jackson, WY 83001, USA",Match,Google
MARSHALL UNIVERSITY GRADUATE COLLEGE,"100 Angus E Peyton Dr, South Charleston, WV 25303, USA",38.357215,-81.6975901,"100 Angus E Peyton Dr, South Charleston, WV 25303, USA",Match,Google
WALSH UNIVERSITY,"2020 E Maple St, North Canton, OH 44720, USA",40.8740394,-81.3688395,"2020 E Maple St, North Canton, OH 44720, USA",Match,Google
UNIVERSITY OF WASHINGTON LIBRARY,"4000 15th Ave NE, Seattle, WA 98195, USA",47.6557702,-122.3078427,"4000 15th Ave NE, Seattle, WA 98195, USA",Match,Google
WILKES UNIVERSITY FARLEY LIBRARY,"187 S Franklin St, Wilkes-Barre, PA 18766, USA",41.2439957,-75.8888407,"187 S Franklin St, Wilkes-Barre, PA 18766, USA",Match,Google
WESTCHESTER COMMUNITY COLLEGE,"75 Grasslands Rd, Valhalla, NY 10595, USA",41.0684125,-73.789596,"75 Grasslands Rd, Valhalla, NY 10595, USA",Match,Google
ST. NORBERT COLLEGE,"100 Grant St, De Pere, WI 54115, USA",44.444875,-88.066303,"100 Grant St, De Pere, WI 54115, USA",Match,Google
WEILL CORNELL MEDICAL COLLEGE IN QATAR,"Education City? Al Luqta St, Ar-Rayyan, Qatar",25.3180355,51.438919,"Education City? Al Luqta St, Ar-Rayyan, Qatar",Match,Google
WAUKOSHA COUNTY TECHNICAL COLLEGE,"327 E Broadway, Waukesha, WI 53186, USA",43.0075674,-88.2234384,"327 E Broadway, Waukesha, WI 53186, USA",Partial Match,Google
EASTERN WASHINGTON UNIVERSITY,"526 5th St, Cheney, WA 99004, USA",47.4905928,-117.5860889,"526 5th St, Cheney, WA 99004, USA",Match,Google
WELLESLEY COLLEGE,"106 Central St, Wellesley, MA 02481, USA",42.2935733,-71.3059277,"106 Central St, Wellesley, MA 02481, USA",Match,Google
WENTWORTH INSTITUTE OF TECHNOLOGY,"550 Huntington Ave, Boston, MA 02115, USA",42.3360695,-71.0954018,"550 Huntington Ave, Boston, MA 02115, USA",Match,Google
WESTPORT PUBLIC LIBRARY,"20 Jesup Rd, Westport, CT 06880, USA",41.1396871,-73.3613527,"20 Jesup Rd, Westport, CT 06880, USA",Match,Google
WESTFIELD STATE COLLEGE,"577 Western Ave, Westfield, MA 01086, USA",42.1318254,-72.7941529,"577 Western Ave, Westfield, MA 01086, USA",Match,Google
CALVARY HOSPITAL,"1740 Eastchester Rd, Bronx, NY 10461, USA",40.8480084,-73.8440486,"1740 Eastchester Rd, Bronx, NY 10461, USA",Match,Google
WEST HARTFORD PUBLIC LIBRARY,"20 S Main St, West Hartford, CT 06107, USA",41.7606651,-72.741485,"20 S Main St, West Hartford, CT 06107, USA",Match,Google
WILLCOX & SAVAGE PC,"Bank Street Garage, 440 Monticello Ave #2200, Norfolk, VA 23510, USA",36.8454322,-76.2894546,"Bank Street Garage, 440 Monticello Ave #2200, Norfolk, VA 23510, USA",Match,Google
SOUTH CENTRAL LIBRARY SYSTEM,"4610 S Biltmore Ln, Madison, WI 53718, USA",43.1457125,-89.2942581,"4610 S Biltmore Ln, Madison, WI 53718, USA",Match,Google
UNIVERSITY OF WISCONSIN/STEVENS POINT,"2100 Main St, Stevens Point, WI 54481, USA",44.5294468,-89.5713776,"2100 Main St, Stevens Point, WI 54481, USA",Match,Google
LEWIS-CLARK STATE COLLEGE,"500 8th Ave, Lewiston, ID 83501, USA",46.4114256,-117.0263456,"500 8th Ave, Lewiston, ID 83501, USA",Match,Google
QUINSIGAMOND COMMUNITY COLLEGE,"670 W Boylston St, Worcester, MA 01606, USA",42.3146459,-71.7936924,"670 W Boylston St, Worcester, MA 01606, USA",Match,Google
UNIVERSITY OF WISCONSIN/RIVER FALLS,"410 S 3rd St, River Falls, WI 54022, USA",44.8526697,-92.6206021,"410 S 3rd St, River Falls, WI 54022, USA",Match,Google
SPRINGFIELD CITY LIBRARY,"220 State St, Springfield, MA 01103, USA",42.1034171,-72.5848152,"220 State St, Springfield, MA 01103, USA",Match,Google
PENNSYLVANIA COLLEGE OF TECHNOLOGY,"1 College Ave, Williamsport, PA 17701, USA",41.234716,-77.021041,"1 College Ave, Williamsport, PA 17701, USA",Match,Google
SEATTLE UNIVERSITY,"901 12th Ave, Seattle, WA 98122, USA",47.6089705,-122.3175626,"901 12th Ave, Seattle, WA 98122, USA",Match,Google
SAINT MARTINS UNIVERSITY,"5000 Abbey Way SE, Lacey, WA 98503, USA",47.0407318,-122.8154094,"5000 Abbey Way SE, Lacey, WA 98503, USA",Partial Match,Google
WHITWORTH UNIVERSITY,"300 W Hawthorne Rd, Spokane, WA 99251, USA",47.7548728,-117.4178623,"300 W Hawthorne Rd, Spokane, WA 99251, USA",Match,Google
GONZAGA UNIVERSITY,"502 E Boone Ave, Spokane, WA 99202, USA",47.667189,-117.4023849,"502 E Boone Ave, Spokane, WA 99202, USA",Match,Google
UNIVERSITY OF WISCONSIN/WASHINGTON COUNTY,"400 S University Dr, West Bend, WI 53095, USA",43.4184685,-88.2120503,"400 S University Dr, West Bend, WI 53095, USA",Match,Google
FAIRMONT STATE COLLEGE,"1201 Locust Ave, Fairmont, WV 26554, USA",39.4857867,-80.1630335,"1201 Locust Ave, Fairmont, WV 26554, USA",Match,Google
KANAWHA COUNTY PUBLIC LIBRARY,"123 Capitol St, Charleston, WV 25301, USA",38.3500517,-81.6356382,"123 Capitol St, Charleston, WV 25301, USA",Match,Google
WEST VIRGINIA WESLYAN COLLEGE,"59 College Ave, Buckhannon, WV 26201, USA",38.990005,-80.2196586,"59 College Ave, Buckhannon, WV 26201, USA",Match,Google
SHEPHERD UNIVERSITY,"301 N King St, Shepherdstown, WV 25443, USA",39.4362419,-77.8088216,"301 N King St, Shepherdstown, WV 25443, USA",Match,Google
WEST VIRGINIA UNIVERSITY LIBRARY,"1549 University Ave, Morgantown, WV 26506, USA",39.633156,-79.954276,"1549 University Ave, Morgantown, WV 26506, USA",Match,Google
WEST LIBERTY UNIVERSITY,"208 University Dr, West Liberty, WV 26074, USA",40.1639052,-80.600651,"208 University Dr, West Liberty, WV 26074, USA",Match,Google
CITIZENS LIBRARY,"55 S College St, Washington, PA 15301, USA",40.170073,-80.242859,"55 S College St, Washington, PA 15301, USA",Match,Google
UNIVERSITY OF WYOMING LIBRARY,"Health Sciences Center, 1000 E University Ave #3334, Laramie, WY 82071, USA",41.3139643,-105.5844683,"Health Sciences Center, 1000 E University Ave #3334, Laramie, WY 82071, USA",Match,Google
WORCESTER PUBLIC LIBRARY,"3 Salem St, Worcester, MA 01608, USA",42.260399,-71.800302,"3 Salem St, Worcester, MA 01608, USA",Match,Google
EASTERN SUFFOLK BOCES SCHOOL LIBRARY SYSTEM,"201 Sunrise Hwy, Patchogue, NY 11772, USA",40.7812654,-72.996503,"201 Sunrise Hwy, Patchogue, NY 11772, USA",Match,Google
SUNY COLLEGE AT BROCKPORT,"350 New Campus Dr, Brockport, NY 14420, USA",43.210018,-77.9507327,"350 New Campus Dr, Brockport, NY 14420, USA",Match,Google
SUNY COLLEGE OF TECHNOLOGY AT DELHI,"454 Delhi Dr, Delhi, NY 13753, USA",42.2704551,-74.9241128,"454 Delhi Dr, Delhi, NY 13753, USA",Match,Google
WESTERN WASHINGTON UNIVERSITY,"516 High St, Bellingham, WA 98225, USA",48.7342883,-122.4866109,"516 High St, Bellingham, WA 98225, USA",Match,Google
SUNY COLLEGE AT FREDONIA,"280 Central Ave, Fredonia, NY 14063, USA",42.4538665,-79.3403633,"280 Central Ave, Fredonia, NY 14063, USA",Match,Google
ALBANY PUBLIC LIBRARY,"161 Washington Ave, Albany, NY 12210, USA",42.656601,-73.762094,"161 Washington Ave, Albany, NY 12210, USA",Match,Google
WILLIAM K SANFORD TOWN LIBRARY,"629 Albany Shaker Rd, Loudonville, NY 12211, USA",42.726155,-73.792069,"629 Albany Shaker Rd, Loudonville, NY 12211, USA",Match,Google
BETHLEHEM PUBLIC LIBRARY,"451 Delaware Ave, Delmar, NY 12054, USA",42.6196879,-73.841225,"451 Delaware Ave, Delmar, NY 12054, USA",Match,Google
TROY PUBLIC LIBRARY,"510 W Big Beaver Rd, Troy, MI 48084, USA",42.5645381,-83.1546354,"510 W Big Beaver Rd, Troy, MI 48084, USA",Match,Google
CRANDALL LIBRARY,"251 Glen St, Glens Falls, NY 12801, USA",43.310994,-73.645509,"251 Glen St, Glens Falls, NY 12801, USA",Match,Google
SARATOGA SPRINGS PUBLIC LIBRARY,"49 Henry St, Saratoga Springs, NY 12866, USA",43.0809343,-73.78327,"49 Henry St, Saratoga Springs, NY 12866, USA",Match,Google
GUILDERLAND PUBLIC LIBRARY,"2228 Western Ave, Guilderland, NY 12084, USA",42.7003882,-73.9048594,"2228 Western Ave, Guilderland, NY 12084, USA",Match,Google
VOORHEESVILLE PUBLIC LIBRARY,"51 School Rd, Voorheesville, NY 12186, USA",42.6582572,-73.9387739,"51 School Rd, Voorheesville, NY 12186, USA",Match,Google
EAST GREENBUSH COMMUNITY LIBRARY,"10 Community Way, East Greenbush, NY 12061, USA",42.619124,-73.695531,"10 Community Way, East Greenbush, NY 12061, USA",Match,Google
IBM TJ WATSON RESEARCH CENTER LIBRARY,"200 Aqueduct Rd, Ossining, NY 10562, USA",41.2169961,-73.8072718,"200 Aqueduct Rd, Ossining, NY 10562, USA",Match,Google
SAINT LOUIS UNIVERSITY PIUS XII LIBRARY,"3650 Lindell Blvd, St. Louis, MO 63108, USA",38.6367723,-90.2349468,"3650 Lindell Blvd, St. Louis, MO 63108, USA",Match,Google
ITHACA COLLEGE,"953 Danby Rd, Ithaca, NY 14850, USA",42.421658,-76.498564,"953 Danby Rd, Ithaca, NY 14850, USA",Match,Google
SCHENECTADY COUNTY COMMUNITY COLLEGE,"78 Washington Ave, Schenectady, NY 12305, USA",42.81479,-73.9502525,"78 Washington Ave, Schenectady, NY 12305, USA",Match,Google
MONTGOMERY COUNTY PUBLIC LIBRARY,"6400 Democracy Blvd, Bethesda, MD 20817, USA",39.023019,-77.128779,"6400 Democracy Blvd, Bethesda, MD 20817, USA",Match,Google
ST. LAWRENCE UNIVERSITY,"23 Romoda Dr, Canton, NY 13617, USA",44.5892119,-75.1608814,"23 Romoda Dr, Canton, NY 13617, USA",Match,Google
MARIST COLLEGE,"3399 North Rd, Poughkeepsie, NY 12601, USA",41.7224565,-73.9341204,"3399 North Rd, Poughkeepsie, NY 12601, USA",Match,Google
BOROUGH OF MANHATTAN COMM COLLEGE/CUNY,"199 Chambers St, New York, NY 10007, USA",40.7187919,-74.0115239,"199 Chambers St, New York, NY 10007, USA",Match,Google
SUNY AGR & TECH COLLEGE AT MORRISVILLE,"80 Eaton St, Morrisville, NY 13408, USA",42.89549,-75.640289,"80 Eaton St, Morrisville, NY 13408, USA",Match,Google
NAZARETH COLLEGE OF ROCHESTER,"4245 East Ave, Rochester, NY 14618, USA",43.1030175,-77.520027,"4245 East Ave, Rochester, NY 14618, USA",Match,Google
INDIANA UNIVERSITY - PERDUE UNIVERSITY/COLUMBUS,"4601 Central Ave, Columbus, IN 47203, USA",39.25333,-85.9022344,"4601 Central Ave, Columbus, IN 47203, USA",Partial Match,Google
THE ANDREW W MELLON FOUNDATION LIBRARY,"140 E 62nd St, New York, NY 10065, USA",40.763774,-73.966377,"140 E 62nd St, New York, NY 10065, USA",Match,Google
CUNY SCHOOL OF LAW,"2 Ct Square W, Long Island City, NY 11101, USA",40.747871,-73.9437393,"2 Ct Square W, Long Island City, NY 11101, USA",Match,Google
QUEENS COLLEGE,"65-30 Kissena Blvd, Flushing, NY 11367, USA",40.7363725,-73.8194606,"65-30 Kissena Blvd, Flushing, NY 11367, USA",Match,Google
NEWYORK PRESBYTERIAN/QUEENS,"56-45 Main St, Flushing, NY 11355, USA",40.7473176,-73.8251598,"56-45 Main St, Flushing, NY 11355, USA",Match,Google
TOURO COLLEGE,"320 W 31st St, New York, NY 10001, USA",40.7505278,-73.99595,"320 W 31st St, New York, NY 10001, USA",Match,Google
FORSYTH COUNTY PUBLIC LIBRARY,"2820 Old Atlanta Rd, Cumming, GA 30041, USA",34.1187797,-84.1565526,"2820 Old Atlanta Rd, Cumming, GA 30041, USA",Match,Google
ALFRED UNIVERSITY,"1 Saxon Dr, Alfred, NY 14802, USA",42.2554523,-77.7862799,"1 Saxon Dr, Alfred, NY 14802, USA",Match,Google
AMERICAN MUSEUM OF NATURAL HISTORY LIBRARY,"Central Park West & 79th, New York, NY 10024, United States",40.7813011,-73.9740667,"Central Park West & 79th, New York, NY 10024, United States",Match,Google
SUNY COLLEGE AT BUFFALO,"1300 Elmwood Ave, Buffalo, NY 14222, USA",42.9335369,-78.8818886,"1300 Elmwood Ave, Buffalo, NY 14222, USA",Match,Google
NEW YORK CHIROPRACTIC COLLEGE LIBRARY,"47 Cayuga St, Seneca Falls, NY 13148, USA",42.9142839,-76.7951792,"47 Cayuga St, Seneca Falls, NY 13148, USA",Match,Google
SUNY COLLEGE AT CORTLAND,"32 Graham Ave, Cortland, NY 13045, USA",42.599001,-76.187797,"32 Graham Ave, Cortland, NY 13045, USA",Match,Google
SUFFOLK COMMUNITY COLLEGE AMMERMAN CAMPUS LIBRARY,"Brentwood, NY 11717, USA",40.7971657,-73.2724876,"Brentwood, NY 11717, USA",Match,Google
NYS COLLEGE OF CERAMICS AT ALFRED UNIVERSITY,"1 Saxon Dr, Alfred Station, NY 14803, USA",42.2532773,-77.7875935,"1 Saxon Dr, Alfred Station, NY 14803, USA",Match,Google
SOUTHERN WESTCHESTER BOCES SCHOOL LIBRARY SYSTEM,"1422, 17 Berkley Dr, Rye Brook, NY 10573, United States",41.021687,-73.6854432,"1422, 17 Berkley Dr, Rye Brook, NY 10573, United States",Match,Google
FARMINGDALE STATE COLLEGE,"2350 NY-110, Farmingdale, NY 11735, USA",40.7529512,-73.4267093,"2350 NY-110, Farmingdale, NY 11735, USA",Match,Google
BROOME TIOGA BOCES,"435 Glenwood Rd, Binghamton, NY 13905, USA",42.129196,-75.9333803,"435 Glenwood Rd, Binghamton, NY 13905, USA",Match,Google
SUNY COLLEGE AT GENESEO,"1, College Cir, Geneseo, NY 14454, USA",42.796092,-77.8237029,"1, College Cir, Geneseo, NY 14454, USA",Match,Google
HAMILTON COLLEGE,"198 College Hill Rd, Clinton, NY 13323, USA",43.0524261,-75.4057949,"198 College Hill Rd, Clinton, NY 13323, USA",Match,Google
GENESEE COMMUNITY COLLEGE,"1 College Rd, Batavia, NY 14020, USA",43.0169369,-78.1378683,"1 College Rd, Batavia, NY 14020, USA",Match,Google
DYOUVILLE COLLEGE,"320 Porter Ave, Buffalo, NY 14201, USA",42.9025804,-78.8908267,"320 Porter Ave, Buffalo, NY 14201, USA",Match,Google
ERIE COMMUNITY COLLEGE NORTH CAMPUS,"6205 Main St, Williamsville, NY 14221, USA",42.960164,-78.723607,"6205 Main St, Williamsville, NY 14221, USA",Match,Google
FULTON-MONTGOMERY COMMUNITY COLLEGE,"2805 NY-67, Johnstown, NY 12095, USA",42.9831,-74.2932021,"2805 NY-67, Johnstown, NY 12095, USA",Match,Google
MEDAILLE COLLEGE,"18 Agassiz Cir, Buffalo, NY 14214, USA",42.928608,-78.8559545,"18 Agassiz Cir, Buffalo, NY 14214, USA",Match,Google
KINGSBOROUGH COMMUNITY COLLEGE,"2001 Oriental Blvd, Brooklyn, NY 11235, USA",40.5786362,-73.9345287,"2001 Oriental Blvd, Brooklyn, NY 11235, USA",Match,Google
HILBERT COLLEGE,"5200 South Park Ave, Hamburg, NY 14075, USA",42.7536002,-78.8214343,"5200 South Park Ave, Hamburg, NY 14075, USA",Match,Google
JAMESTOWN COMMUNITY COLLEGE,"525 Falconer St, Jamestown, NY 14701, USA",42.1159682,-79.2200873,"525 Falconer St, Jamestown, NY 14701, USA",Match,Google
CORNING MUSEUM OF GLASS/RAKOW RESEARCH LIBRARY,"5 Museum Way, Corning, NY 14830, USA",42.1494936,-77.0567824,"5 Museum Way, Corning, NY 14830, USA",Match,Google
NEW YORK UNIVERSITY LAW SCHOOL LIBRARY,"40 Washington Square S, New York, NY 10012, USA",40.7304426,-73.9992674,"40 Washington Square S, New York, NY 10012, USA",Match,Google
DEACONESS BILLINGS CLINIC,"2800 10th Ave N, Billings, MT 59101, USA",45.7894434,-108.512958,"2800 10th Ave N, Billings, MT 59101, USA",Match,Google
YOUNGSTOWN STATE UNIVERSITY,"1 University Plaza, Youngstown, OH 44555, USA",41.10626,-80.6477,"1 University Plaza, Youngstown, OH 44555, USA",Match,Google
BOCES ST LAWRENCE-LEWIS SCHOOL LIBRARY SYSTEM,"40 W Main St, Canton, NY 13617, USA",44.5949745,-75.181507,"40 W Main St, Canton, NY 13617, USA",Match,Google
SUNY OSWEGO,"7060 NY-104, Oswego, NY 13126, USA",43.4514291,-76.5443166,"7060 NY-104, Oswego, NY 13126, USA",Match,Google
NEW YORK UNIVERSITY BERN DIBNER LIBRARY,"5 MetroTech Center, Brooklyn, NY 11201-3840, Brooklyn, NY 11201, United States",40.6946976,-73.9856659,"5 MetroTech Center, Brooklyn, NY 11201-3840, Brooklyn, NY 11201, United States",Match,Google
SUNY COLLEGE AT PLATTSBURGH,"101 Broad St, Plattsburgh, NY 12901, USA",44.692543,-73.466962,"101 Broad St, Plattsburgh, NY 12901, USA",Match,Google
ROCHESTER PUBLIC LIBRARY,"101 2nd St SE, Rochester, MN 55904, USA",44.021763,-92.46081,"101 2nd St SE, Rochester, MN 55904, USA",Match,Google
RENSSELAER POLYTECHNIC INSTITUTE,"110 8th St, Troy, NY 12180, USA",42.730172,-73.678803,"110 8th St, Troy, NY 12180, USA",Match,Google
SOUTH CENTRAL REGIONAL LIBRARY COUNCIL,"108 N Cayuga St, Clinton Hall, 3rd Floor, Ithaca, NY 14850, United States",42.4398483,-76.4993919,"108 N Cayuga St, Clinton Hall, 3rd Floor, Ithaca, NY 14850, United States",Match,Google
NATIONAL BASEBALL HALL OF FAME,"25 Main St, Cooperstown, NY 13326, USA",42.6999368,-74.9232137,"25 Main St, Cooperstown, NY 13326, USA",Match,Google
OUR LADY OF LOURDES MEMORIAL HOSPITAL,"169 Riverside Dr, Binghamton, NY 13905, USA",42.0916462,-75.9358,"169 Riverside Dr, Binghamton, NY 13905, USA",Match,Google
OTSEGO - NORTHERN CATSKILLS BOCES,"2020 Jump Brook Rd, Roxbury, NY 12474, USA",42.3692932,-74.5092394,"2020 Jump Brook Rd, Roxbury, NY 12474, USA",Match,Google
WELLS COLLEGE,"170 Main St, Aurora, NY 13026, USA",42.7443796,-76.6973136,"170 Main St, Aurora, NY 13026, USA",Match,Google
NEW YORK STATE HISTORICAL ASSOCIATION,"80 Lake St, Cooperstown, NY 13326, USA",42.716955,-74.928452,"80 Lake St, Cooperstown, NY 13326, USA",Match,Google
SUNY INSTITUTE OF TECHNOLOGY,"Kunsela Hall, 100 Seymour Ave, Utica, NY 13502, USA",43.1355755,-75.2298915,"Kunsela Hall, 100 Seymour Ave, Utica, NY 13502, USA",Match,Google
BASSETT MEDICAL CENTER,"1 Atwell Rd, Cooperstown, NY 13326, USA",42.696016,-74.923186,"1 Atwell Rd, Cooperstown, NY 13326, USA",Match,Google
BROOME COUNTY PUBLIC LIBRARY,"185 Court St, Binghamton, NY 13901, USA",42.1003892,-75.906855,"185 Court St, Binghamton, NY 13901, USA",Match,Google
YALE UNIVERSITY LIBRARY,"180 York St, New Haven, CT 06511, USA",41.3087515,-72.9318773,"180 York St, New Haven, CT 06511, USA",Match,Google
ONONDAGA LIBRARY SYSTEM,"447 S Salina St, Syracuse, NY 13202, USA",43.0458397,-76.1520579,"447 S Salina St, Syracuse, NY 13202, USA",Match,Google
UNITED STATES MILITARY ACADEMY AT WEST POINT,"West Point, NY, USA",41.3918372,-73.9625033,"West Point, NY, USA",Match,Google
MONTANA STATE UNIVERSITY/NORTHERN,"300 13th St W, Havre, MT 59501, USA",48.5408648,-109.6880953,"300 13th St W, Havre, MT 59501, USA",Match,Google
FOUR COUNTY LIBRARY SYSTEM,"304 Clubhouse Rd, Vestal, NY 13850, USA",42.089831,-75.9498301,"304 Clubhouse Rd, Vestal, NY 13850, USA",Match,Google
ALBERT EINSTEIN COLLEGE OF MEDICINE,"1300 Morris Park Ave, Bronx, NY 10461, USA",40.8521451,-73.8443938,"1300 Morris Park Ave, Bronx, NY 10461, USA",Match,Google
YESHIVA UNIVERSITY,"500 W 185th St, New York, NY 10033, USA",40.8505995,-73.9293271,"500 W 185th St, New York, NY 10033, USA",Match,Google
ALBANY LAW SCHOOL,"80 New Scotland Ave, Albany, NY 12208, USA",42.651343,-73.776883,"80 New Scotland Ave, Albany, NY 12208, USA",Match,Google
TWIN RIVERS CORRECTIONS CENTER,"82911 Beach Access Rd, Umatilla, OR 97882, USA",45.9234775,-119.2583252,"82911 Beach Access Rd, Umatilla, OR 97882, USA",Partial Match,Google
TACOMA COMMUNITY COLLEGE,"6501 S 19th St, Tacoma, WA 98466, USA",47.2465435,-122.5216681,"6501 S 19th St, Tacoma, WA 98466, USA",Match,Google
WESTERN STATE HOSPITAL,"9601 Steilacoom Blvd SW, Lakewood, WA 98498, USA",47.17866,-122.5650751,"9601 Steilacoom Blvd SW, Lakewood, WA 98498, USA",Match,Google
DANIEL BOONE REGIONAL LIBRARY,"100 W Broadway, Columbia, MO 65203, USA",38.95124,-92.339283,"100 W Broadway, Columbia, MO 65203, USA",Match,Google
ST. LOUIS COUNTY LIBRARY,"1640 S Lindbergh Blvd, St. Louis, MO 63131, USA",38.6301102,-90.4048177,"1640 S Lindbergh Blvd, St. Louis, MO 63131, USA",Match,Google
SUNY COLLEGE OF TECHNOLOGY AT ALFRED,"10 Upper College Dr, Alfred, NY 14802, USA",42.2552377,-77.7946533,"10 Upper College Dr, Alfred, NY 14802, USA",Match,Google
BROOKLYN LAW SCHOOL LIBRARY,"250 Joralemon St, Brooklyn, NY 11201, USA",40.6918663,-73.9896878,"250 Joralemon St, Brooklyn, NY 11201, USA",Match,Google
SUNY COLLEGE AT ONEONTA,"108 Ravine Pkwy, Oneonta, NY 13820, USA",42.4710197,-75.0635578,"108 Ravine Pkwy, Oneonta, NY 13820, USA",Match,Google
COLUMBIA UNIVERSITY HEALTH SCIENCES LIBRARY,"Hammer Health Sciences Building, 701 W 168th St, New York, NY 10032, USA",40.8426079,-73.942509,"Hammer Health Sciences Building, 701 W 168th St, New York, NY 10032, USA",Match,Google
SUNY CANTON,"34 Cornell Dr, Canton, NY 13617, USA",44.602382,-75.183458,"34 Cornell Dr, Canton, NY 13617, USA",Match,Google
COLUMBIA UNIVERSITY IN THE CITY OF NEW YORK,"116th St & Broadway, New York, NY 10027, United States",40.8075355,-73.9625727,"116th St & Broadway, New York, NY 10027, United States",Match,Google
CAZENOVIA COLLEGE,"22 Sullivan St, Cazenovia, NY 13035, USA",42.9320977,-75.8541481,"22 Sullivan St, Cazenovia, NY 13035, USA",Match,Google
CORNING COMMUNITY COLLEGE,"1 Academic Dr, Corning, NY 14830, USA",42.117514,-77.072342,"1 Academic Dr, Corning, NY 14830, USA",Match,Google
HOBART & WILLIAM SMITH COLLEGE,"300 Pulteney St, Geneva, NY 14456, USA",42.8581166,-76.9852164,"300 Pulteney St, Geneva, NY 14456, USA",Match,Google
CUNY GRADUATE CENTER,"365 5th Ave, New York, NY 10016, USA",40.748449,-73.9834916,"365 5th Ave, New York, NY 10016, USA",Match,Google
HOSTOS COMMUNITY COLLEGE-CUNY,"500 Grand Concourse, Bronx, NY 10451, USA",40.8178245,-73.9281987,"500 Grand Concourse, Bronx, NY 10451, USA",Match,Google
SARA HIGHTOWER REGIONAL LIBRARY,"205 Riverside Pkwy NE, Rome, GA 30161, USA",34.258237,-85.169044,"205 Riverside Pkwy NE, Rome, GA 30161, USA",Match,Google
HOFSTRA UNIV LAW SCHOOL LIBRARY,"121 Hofstra University Hempstead NY 11549 1210 US, Hempstead, NY 11549, United States",40.7119597,-73.5995078,"121 Hofstra University Hempstead NY 11549 1210 US, Hempstead, NY 11549, United States",Match,Google
HUNTER COLLEGE,"695 Park Ave, New York, NY 10065, USA",40.7682912,-73.9644936,"695 Park Ave, New York, NY 10065, USA",Match,Google
HOFSTRA UNIVERSITY,"1000 Hempstead Turnpike, Hempstead, NY 11549, USA",40.716792,-73.5994041,"1000 Hempstead Turnpike, Hempstead, NY 11549, USA",Match,Google
THE JUILLIARD SCHOOL,"60 Lincoln Center Plaza, New York, NY 10023, USA",40.7737587,-73.9828286,"60 Lincoln Center Plaza, New York, NY 10023, USA",Match,Google
KEUKA COLLEGE,"141 Central Ave, Keuka Park, NY 14478, USA",42.6151505,-77.0905414,"141 Central Ave, Keuka Park, NY 14478, USA",Match,Google
COASTAL CAROLINA UNIVERSITY,"100 Chanticleer Dr E, Conway, SC 29528, USA",33.7949658,-79.01173,"100 Chanticleer Dr E, Conway, SC 29528, USA",Match,Google
SUNY COLLEGE AT NEW PALTZ,"1 Hawk Dr, New Paltz, NY 12561, USA",41.7390054,-74.0851655,"1 Hawk Dr, New Paltz, NY 12561, USA",Match,Google
MANHATTAN COLLEGE,"4513 Manhattan College Pkwy, Bronx, NY 10471, USA",40.8899623,-73.9010623,"4513 Manhattan College Pkwy, Bronx, NY 10471, USA",Match,Google
SUNY MARITIME COLLEGE LIBRARY,"6 Pennyfield Ave, Bronx, NY 10465, USA",40.8057131,-73.7915481,"6 Pennyfield Ave, Bronx, NY 10465, USA",Match,Google
MANHATTAN SCHOOL OF MUSIC,"120 Claremont Ave, New York, NY 10027, USA",40.8123504,-73.9613218,"120 Claremont Ave, New York, NY 10027, USA",Match,Google
NEW YORK LAW SCHOOL,"185 W Broadway, New York, NY 10013, USA",40.717982,-74.006988,"185 W Broadway, New York, NY 10013, USA",Match,Google
NIOGA LIBRARY SYSTEM,"6575 Wheeler Rd, Lockport, NY 14094, USA",43.222864,-78.670003,"6575 Wheeler Rd, Lockport, NY 14094, USA",Match,Google
NORTH COUNTRY COMMUNITY COLLEGE,"23 Santanoni Ave, Saranac Lake, NY 12983, USA",44.3188396,-74.1211266,"23 Santanoni Ave, Saranac Lake, NY 12983, USA",Match,Google
THE NEW YORK SOCIETY LIBRARY,"53 E 79th St, New York, NY 10075, USA",40.77634,-73.96144,"53 E 79th St, New York, NY 10075, USA",Match,Google
NEW YORK INSTITUTE OF TECHNOLOGY,"1855 Broadway, New York, NY 10023, USA",40.7696926,-73.9825863,"1855 Broadway, New York, NY 10023, USA",Match,Google
SUNY COLLEGE AT OLD WESTBURY,"223 Store Hill Road, Old Westbury, NY 11568, USA",40.7992391,-73.5738915,"223 Store Hill Road, Old Westbury, NY 11568, USA",Match,Google
SUNY COLLEGE AT PURCHASE,"735 Anderson Hill Rd, Purchase, NY 10577, USA",41.0470389,-73.7004189,"735 Anderson Hill Rd, Purchase, NY 10577, USA",Match,Google
QUEENSBOROUGH COMMUNITY COLLEGE,"222-05 56th Ave, Bayside, NY 11364, USA",40.7554539,-73.7574316,"222-05 56th Ave, Bayside, NY 11364, USA",Match,Google
NYC HEALTH AND HOSPITALS QUEENS LIBRARY,"82-68 164th St, Jamaica, NY 11432, USA",40.7174553,-73.8043343,"82-68 164th St, Jamaica, NY 11432, USA",Match,Google
SUNY COLLEGE AT POTSDAM,"44 Pierrepont Ave, Potsdam, NY 13676, USA",44.6643102,-74.9761059,"44 Pierrepont Ave, Potsdam, NY 13676, USA",Match,Google
QUEENS BOROUGH PUBLIC LIBRARY,"89-11 Merrick Blvd, Jamaica, NY 11432, USA",40.7078838,-73.7947153,"89-11 Merrick Blvd, Jamaica, NY 11432, USA",Match,Google
SCOTT COMMUNITY COLLEGE IOWA,"500 Belmont Road, Bettendorf, IA 52722, USA",41.5475463,-90.4684046,"500 Belmont Road, Bettendorf, IA 52722, USA",Match,Google
VITERBO UNIVERSITY,"900 Viterbo Dr, La Crosse, WI 54601, USA",43.8031114,-91.2445494,"900 Viterbo Dr, La Crosse, WI 54601, USA",Match,Google
SAGE COLLEGE,"140 New Scotland Ave, Albany, NY 12208, USA",42.6514661,-73.7825767,"140 New Scotland Ave, Albany, NY 12208, USA",Match,Google
SAINT JOHNS UNIVERSITY,"8000 Utopia Pkwy, Jamaica, NY 11439, USA",40.7220627,-73.7942112,"8000 Utopia Pkwy, Jamaica, NY 11439, USA",Partial Match,Google
ST. JOHNS UNIVERSITY SCHOOL OF LAW,"81-50D Utopia Pkwy, Jamaica, NY 11432, USA",40.7216882,-73.7919162,"81-50D Utopia Pkwy, Jamaica, NY 11432, USA",Partial Match,Google
TOURO LAW CENTER,"225 Eastview Dr, Central Islip, NY 11722, USA",40.76219,-73.187972,"225 Eastview Dr, Central Islip, NY 11722, USA",Match,Google
MID-YORK LIBRARY SYSTEM,"1600 Lincoln Ave, Utica, NY 13502, USA",43.094718,-75.256316,"1600 Lincoln Ave, Utica, NY 13502, USA",Match,Google
MADISON ONEIDA BOCES SCHOOL LIBRARY SYSTEM,"4937 Spring Rd, Verona, NY 13478, USA",43.1413984,-75.5604633,"4937 Spring Rd, Verona, NY 13478, USA",Match,Google
BOCES ONONDAGA CORTLAND & MADISON,"250 Port Watson St, Cortland, NY 13045, USA",42.5990605,-76.1593569,"250 Port Watson St, Cortland, NY 13045, USA",Match,Google
ONEIDA/HERKIMER BOCES,"4747 Middle Settlement Rd, New Hartford, NY 13413, USA",43.0938127,-75.3220842,"4747 Middle Settlement Rd, New Hartford, NY 13413, USA",Match,Google
SAINT JOSEPHS HOSPITAL HEALTH CENTER LIBRARY,"350 W Thomas Rd, Phoenix, AZ 85013, USA",33.4819191,-112.0793604,"350 W Thomas Rd, Phoenix, AZ 85013, USA",Partial Match,Google
FAXTON SAINT LUKES HEALTHCARE MEDICAL LIBRARY,"1676 Sunset Ave, Utica, NY 13502, USA",43.0910821,-75.2580789,"1676 Sunset Ave, Utica, NY 13502, USA",Partial Match,Google
MOHAWK VALLEY COMMUNITY COLLEGE,"1101 Sherman Dr, Utica, NY 13501, USA",43.077007,-75.218217,"1101 Sherman Dr, Utica, NY 13501, USA",Match,Google
SCHOOL OF VISUAL ARTS LIBRARY,"380 2nd Ave, New York, NY 10010, USA",40.7369103,-73.981241,"380 2nd Ave, New York, NY 10010, USA",Match,Google
WAGNER COLLEGE,"1 Campus Rd, Staten Island, NY 10301, USA",40.6149796,-74.0944049,"1 Campus Rd, Staten Island, NY 10301, USA",Match,Google
UNION COLLEGE/NEW YORK,"807 Union St, Schenectady, NY 12308, USA",42.8177125,-73.9295987,"807 Union St, Schenectady, NY 12308, USA",Match,Google
CITY COLLEGE OF NEW YORK,"160 Convent Ave, New York, NY 10031, USA",40.8200471,-73.9492724,"160 Convent Ave, New York, NY 10031, USA",Match,Google
BELLEVUE COMMUNITY COLLEGE,"3000 Landerholm Cir SE, Bellevue, WA 98007, USA",47.5843604,-122.1482167,"3000 Landerholm Cir SE, Bellevue, WA 98007, USA",Match,Google
FORDHAM LAW SCHOOL LIBRARY,"140 W 62nd St, New York, NY 10023, USA",40.7709476,-73.9851325,"140 W 62nd St, New York, NY 10023, USA",Match,Google
NEW YORK UNIVERSITY,"New York, NY 10003, USA",40.7295134,-73.9964609,"New York, NY 10003, USA",Match,Google
CAYUGA COUNTY COMMUNITY COLLEGE,"197 Franklin St, Auburn, NY 13021, USA",42.9438003,-76.5435399,"197 Franklin St, Auburn, NY 13021, USA",Match,Google
